<?xml version="1.0" encoding="UTF-8"?>
<kml xmlns="http://www.opengis.net/kml/2.2">
  <Document>
    <name>Parcours hiver 2026</name>
    <description/>
    <Style id="icon-1499-01579B-nodesc-normal">
      <IconStyle>
        <color>ff9b5701</color>
        <scale>1</scale>
        <Icon>
          <href>https://www.gstatic.com/mapspro/images/stock/503-wht-blank_maps.png</href>
        </Icon>
      </IconStyle>
      <LabelStyle>
        <scale>0</scale>
      </LabelStyle>
      <BalloonStyle>
        <text><![CDATA[<h3>$[name]</h3>]]></text>
      </BalloonStyle>
    </Style>
    <Style id="icon-1499-01579B-nodesc-highlight">
      <IconStyle>
        <color>ff9b5701</color>
        <scale>1</scale>
        <Icon>
          <href>https://www.gstatic.com/mapspro/images/stock/503-wht-blank_maps.png</href>
        </Icon>
      </IconStyle>
      <LabelStyle>
        <scale>1</scale>
      </LabelStyle>
      <BalloonStyle>
        <text><![CDATA[<h3>$[name]</h3>]]></text>
      </BalloonStyle>
    </Style>
    <StyleMap id="icon-1499-01579B-nodesc">
      <Pair>
        <key>normal</key>
        <styleUrl>#icon-1499-01579B-nodesc-normal</styleUrl>
      </Pair>
      <Pair>
        <key>highlight</key>
        <styleUrl>#icon-1499-01579B-nodesc-highlight</styleUrl>
      </Pair>
    </StyleMap>
    <Style id="icon-1499-FFD600-nodesc-normal">
      <IconStyle>
        <color>ff00d6ff</color>
        <scale>1</scale>
        <Icon>
          <href>https://www.gstatic.com/mapspro/images/stock/503-wht-blank_maps.png</href>
        </Icon>
      </IconStyle>
      <LabelStyle>
        <scale>0</scale>
      </LabelStyle>
      <BalloonStyle>
        <text><![CDATA[<h3>$[name]</h3>]]></text>
      </BalloonStyle>
    </Style>
    <Style id="icon-1499-FFD600-nodesc-highlight">
      <IconStyle>
        <color>ff00d6ff</color>
        <scale>1</scale>
        <Icon>
          <href>https://www.gstatic.com/mapspro/images/stock/503-wht-blank_maps.png</href>
        </Icon>
      </IconStyle>
      <LabelStyle>
        <scale>1</scale>
      </LabelStyle>
      <BalloonStyle>
        <text><![CDATA[<h3>$[name]</h3>]]></text>
      </BalloonStyle>
    </Style>
    <StyleMap id="icon-1499-FFD600-nodesc">
      <Pair>
        <key>normal</key>
        <styleUrl>#icon-1499-FFD600-nodesc-normal</styleUrl>
      </Pair>
      <Pair>
        <key>highlight</key>
        <styleUrl>#icon-1499-FFD600-nodesc-highlight</styleUrl>
      </Pair>
    </StyleMap>
    <Style id="icon-1574-0F9D58-nodesc-normal">
      <IconStyle>
        <color>ff589d0f</color>
        <scale>1</scale>
        <Icon>
          <href>https://www.gstatic.com/mapspro/images/stock/503-wht-blank_maps.png</href>
        </Icon>
      </IconStyle>
      <LabelStyle>
        <scale>0</scale>
      </LabelStyle>
      <BalloonStyle>
        <text><![CDATA[<h3>$[name]</h3>]]></text>
      </BalloonStyle>
    </Style>
    <Style id="icon-1574-0F9D58-nodesc-highlight">
      <IconStyle>
        <color>ff589d0f</color>
        <scale>1</scale>
        <Icon>
          <href>https://www.gstatic.com/mapspro/images/stock/503-wht-blank_maps.png</href>
        </Icon>
      </IconStyle>
      <LabelStyle>
        <scale>1</scale>
      </LabelStyle>
      <BalloonStyle>
        <text><![CDATA[<h3>$[name]</h3>]]></text>
      </BalloonStyle>
    </Style>
    <StyleMap id="icon-1574-0F9D58-nodesc">
      <Pair>
        <key>normal</key>
        <styleUrl>#icon-1574-0F9D58-nodesc-normal</styleUrl>
      </Pair>
      <Pair>
        <key>highlight</key>
        <styleUrl>#icon-1574-0F9D58-nodesc-highlight</styleUrl>
      </Pair>
    </StyleMap>
    <Style id="icon-1661-FF5252-nodesc-normal">
      <IconStyle>
        <color>ff5252ff</color>
        <scale>1</scale>
        <Icon>
          <href>https://www.gstatic.com/mapspro/images/stock/503-wht-blank_maps.png</href>
        </Icon>
      </IconStyle>
      <LabelStyle>
        <scale>0</scale>
      </LabelStyle>
      <BalloonStyle>
        <text><![CDATA[<h3>$[name]</h3>]]></text>
      </BalloonStyle>
    </Style>
    <Style id="icon-1661-FF5252-nodesc-highlight">
      <IconStyle>
        <color>ff5252ff</color>
        <scale>1</scale>
        <Icon>
          <href>https://www.gstatic.com/mapspro/images/stock/503-wht-blank_maps.png</href>
        </Icon>
      </IconStyle>
      <LabelStyle>
        <scale>1</scale>
      </LabelStyle>
      <BalloonStyle>
        <text><![CDATA[<h3>$[name]</h3>]]></text>
      </BalloonStyle>
    </Style>
    <StyleMap id="icon-1661-FF5252-nodesc">
      <Pair>
        <key>normal</key>
        <styleUrl>#icon-1661-FF5252-nodesc-normal</styleUrl>
      </Pair>
      <Pair>
        <key>highlight</key>
        <styleUrl>#icon-1661-FF5252-nodesc-highlight</styleUrl>
      </Pair>
    </StyleMap>
    <Style id="icon-1899-F9A825-nodesc-normal">
      <IconStyle>
        <color>ff25a8f9</color>
        <scale>1</scale>
        <Icon>
          <href>https://www.gstatic.com/mapspro/images/stock/503-wht-blank_maps.png</href>
        </Icon>
        <hotSpot x="32" xunits="pixels" y="64" yunits="insetPixels"/>
      </IconStyle>
      <LabelStyle>
        <scale>0</scale>
      </LabelStyle>
      <BalloonStyle>
        <text><![CDATA[<h3>$[name]</h3>]]></text>
      </BalloonStyle>
    </Style>
    <Style id="icon-1899-F9A825-nodesc-highlight">
      <IconStyle>
        <color>ff25a8f9</color>
        <scale>1</scale>
        <Icon>
          <href>https://www.gstatic.com/mapspro/images/stock/503-wht-blank_maps.png</href>
        </Icon>
        <hotSpot x="32" xunits="pixels" y="64" yunits="insetPixels"/>
      </IconStyle>
      <LabelStyle>
        <scale>1</scale>
      </LabelStyle>
      <BalloonStyle>
        <text><![CDATA[<h3>$[name]</h3>]]></text>
      </BalloonStyle>
    </Style>
    <StyleMap id="icon-1899-F9A825-nodesc">
      <Pair>
        <key>normal</key>
        <styleUrl>#icon-1899-F9A825-nodesc-normal</styleUrl>
      </Pair>
      <Pair>
        <key>highlight</key>
        <styleUrl>#icon-1899-F9A825-nodesc-highlight</styleUrl>
      </Pair>
    </StyleMap>
    <Style id="line-7CB342-3503-nodesc-normal">
      <LineStyle>
        <color>ff42b37c</color>
        <width>3.503</width>
      </LineStyle>
      <BalloonStyle>
        <text><![CDATA[<h3>$[name]</h3>]]></text>
      </BalloonStyle>
    </Style>
    <Style id="line-7CB342-3503-nodesc-highlight">
      <LineStyle>
        <color>ff42b37c</color>
        <width>5.2545</width>
      </LineStyle>
      <BalloonStyle>
        <text><![CDATA[<h3>$[name]</h3>]]></text>
      </BalloonStyle>
    </Style>
    <StyleMap id="line-7CB342-3503-nodesc">
      <Pair>
        <key>normal</key>
        <styleUrl>#line-7CB342-3503-nodesc-normal</styleUrl>
      </Pair>
      <Pair>
        <key>highlight</key>
        <styleUrl>#line-7CB342-3503-nodesc-highlight</styleUrl>
      </Pair>
    </StyleMap>
    <Style id="line-FFD600-4000-nodesc-normal">
      <LineStyle>
        <color>ff00d6ff</color>
        <width>4</width>
      </LineStyle>
      <BalloonStyle>
        <text><![CDATA[<h3>$[name]</h3>]]></text>
      </BalloonStyle>
    </Style>
    <Style id="line-FFD600-4000-nodesc-highlight">
      <LineStyle>
        <color>ff00d6ff</color>
        <width>6</width>
      </LineStyle>
      <BalloonStyle>
        <text><![CDATA[<h3>$[name]</h3>]]></text>
      </BalloonStyle>
    </Style>
    <StyleMap id="line-FFD600-4000-nodesc">
      <Pair>
        <key>normal</key>
        <styleUrl>#line-FFD600-4000-nodesc-normal</styleUrl>
      </Pair>
      <Pair>
        <key>highlight</key>
        <styleUrl>#line-FFD600-4000-nodesc-highlight</styleUrl>
      </Pair>
    </StyleMap>
    <Style id="poly-0F9D58-3601-191-nodesc-normal">
      <LineStyle>
        <color>ff589d0f</color>
        <width>3.601</width>
      </LineStyle>
      <PolyStyle>
        <color>bf589d0f</color>
        <fill>1</fill>
        <outline>1</outline>
      </PolyStyle>
      <BalloonStyle>
        <text><![CDATA[<h3>$[name]</h3>]]></text>
      </BalloonStyle>
    </Style>
    <Style id="poly-0F9D58-3601-191-nodesc-highlight">
      <LineStyle>
        <color>ff589d0f</color>
        <width>5.4015</width>
      </LineStyle>
      <PolyStyle>
        <color>bf589d0f</color>
        <fill>1</fill>
        <outline>1</outline>
      </PolyStyle>
      <BalloonStyle>
        <text><![CDATA[<h3>$[name]</h3>]]></text>
      </BalloonStyle>
    </Style>
    <StyleMap id="poly-0F9D58-3601-191-nodesc">
      <Pair>
        <key>normal</key>
        <styleUrl>#poly-0F9D58-3601-191-nodesc-normal</styleUrl>
      </Pair>
      <Pair>
        <key>highlight</key>
        <styleUrl>#poly-0F9D58-3601-191-nodesc-highlight</styleUrl>
      </Pair>
    </StyleMap>
    <Folder>
      <name>Parcours 20km</name>
      <Placemark>
        <name>route</name>
        <styleUrl>#line-FFD600-4000-nodesc</styleUrl>
        <LineString>
          <tessellate>1</tessellate>
          <coordinates>
            -1.06048,46.94104,0
            -1.0602,46.94137,0
            -1.05934,46.94195,0
            -1.05891,46.94187,0
            -1.05864,46.94172,0
            -1.05858,46.94156,0
            -1.05865,46.94133,0
            -1.0586731,46.941107,0
            -1.0589903,46.9407562,0
            -1.0588993,46.9406844,0
            -1.0583992,46.9410267,0
            -1.0580097,46.9413626,0
            -1.057824,46.9416693,0
            -1.058,46.9418,0
            -1.05784,46.94195,0
            -1.05784,46.94203,0
            -1.0578,46.94207,0
            -1.05768,46.94211,0
            -1.05761,46.94241,0
            -1.0576,46.94256,0
            -1.05756,46.94264,0
            -1.05748,46.94272,0
            -1.05721,46.94291,0
            -1.05694,46.94299,0
            -1.05675,46.94298,0
            -1.05658,46.94291,0
            -1.05644,46.9428,0
            -1.05612,46.94241,0
            -1.05603,46.94229,0
            -1.05589,46.94222,0
            -1.05569,46.94215,0
            -1.05552,46.94211,0
            -1.05533,46.94209,0
            -1.05531,46.94208,0
            -1.05449,46.94155,0
            -1.0543,46.94144,0
            -1.05397,46.94116,0
            -1.05373,46.9409,0
            -1.05356,46.94077,0
            -1.05295,46.94033,0
            -1.05256,46.94067,0
            -1.05194,46.94127,0
            -1.05194,46.94128,0
            -1.0522975,46.9416746,0
            -1.0528171,46.9423846,0
            -1.0528223,46.9424823,0
            -1.0526334,46.9428133,0
            -1.0537978,46.9431023,0
            -1.05398,46.94345,0
            -1.05404,46.94345,0
            -1.05424,46.94379,0
            -1.05425,46.94381,0
            -1.053,46.94414,0
            -1.0518,46.94446,0
            -1.05035,46.94474,0
            -1.05019,46.94471,0
            -1.04959,46.9449,0
            -1.04428,46.94719,0
            -1.04347,46.94749,0
            -1.04344,46.9475,0
            -1.04287,46.94769,0
            -1.04229,46.94779,0
            -1.04193,46.9478,0
            -1.03744,46.94772,0
            -1.03591,46.94792,0
            -1.03588,46.94791,0
            -1.03577,46.94785,0
            -1.03573,46.94774,0
            -1.03581,46.94768,0
            -1.03595,46.94765,0
            -1.03606,46.94761,0
            -1.03613,46.94753,0
            -1.03609,46.94746,0
            -1.036,46.94739,0
            -1.03567,46.94727,0
            -1.03528,46.94718,0
            -1.03465,46.94678,0
            -1.03445,46.94664,0
            -1.03437,46.94651,0
            -1.03439,46.9462,0
            -1.03445,46.94603,0
            -1.03457,46.94592,0
            -1.0349,46.94566,0
            -1.03512,46.94539,0
            -1.03532,46.94509,0
            -1.03547,46.94478,0
            -1.03538,46.94457,0
            -1.03521,46.94423,0
            -1.03493,46.94382,0
            -1.0346,46.94342,0
            -1.03435,46.9432,0
            -1.0331384,46.9428927,0
            -1.0326707,46.9425688,0
            -1.0324936,46.9413742,0
            -1.0339,46.94119,0
            -1.0339,46.94118,0
            -1.03395,46.94056,0
            -1.03382,46.94021,0
            -1.03383,46.9401,0
            -1.03396,46.93992,0
            -1.03407,46.93977,0
            -1.0346,46.9396,0
            -1.03483,46.93949,0
            -1.03488,46.93945,0
            -1.035,46.93953,0
            -1.03517,46.93963,0
            -1.03583,46.9403,0
            -1.03618,46.94066,0
            -1.03628,46.94073,0
            -1.03629,46.94073,0
            -1.03637,46.94075,0
            -1.03649,46.94073,0
            -1.03718,46.94054,0
            -1.03761,46.94052,0
            -1.03809,46.94054,0
            -1.0385,46.94054,0
            -1.03969,46.94044,0
            -1.04008,46.94044,0
            -1.04032,46.94046,0
            -1.04141,46.94162,0
            -1.04145,46.94166,0
            -1.04141,46.94162,0
            -1.04131,46.942,0
            -1.04133,46.94206,0
            -1.0414,46.9421,0
            -1.04169,46.94215,0
            -1.04206,46.94196,0
            -1.0427,46.94197,0
            -1.04318,46.94175,0
            -1.04353,46.94193,0
            -1.04401,46.94188,0
            -1.04367,46.94121,0
            -1.04383,46.9406,0
            -1.04438,46.94,0
            -1.0449,46.93974,0
            -1.0454374,46.9393189,0
            -1.0457116,46.9390502,0
            -1.0454652,46.9389554,0
            -1.044841,46.9390403,0
            -1.0455912,46.9386559,0
            -1.0460826,46.9383764,0
            -1.0463952,46.9382162,0
            -1.046464,46.9379461,0
            -1.0465255,46.9374575,0
            -1.0473511,46.9373132,0
            -1.04879,46.93648,0
            -1.04911,46.93653,0
            -1.04947,46.9362,0
            -1.05013,46.93627,0
            -1.05052,46.93634,0
            -1.05089,46.93635,0
            -1.0516,46.93635,0
            -1.05215,46.93654,0
            -1.05285,46.93686,0
            -1.05346,46.93757,0
            -1.05378,46.93791,0
            -1.05437,46.9386,0
            -1.05459,46.9389,0
            -1.054638,46.938972,0
            -1.0544562,46.9392099,0
            -1.05442,46.93936,0
            -1.05453,46.93959,0
            -1.05467,46.93964,0
            -1.05486,46.9396,0
            -1.0551,46.93939,0
            -1.0552,46.93938,0
            -1.05537,46.93944,0
            -1.05569,46.93956,0
            -1.05602,46.93963,0
            -1.05666,46.93982,0
            -1.05727,46.94009,0
            -1.05754,46.94019,0
            -1.05806,46.94032,0
            -1.05846,46.94045,0
            -1.05883,46.94059,0
            -1.059,46.94069,0
            -1.05931,46.94071,0
            -1.05962,46.94072,0
            -1.05982,46.94069,0
            -1.05997,46.94071,0
            -1.06012,46.94076,0
            -1.06067,46.94105,0
            -1.06074,46.94109,0
            -1.06101,46.94108,0
            -1.06105,46.9411,0
            -1.06111,46.94113,0
            -1.06139,46.94124,0
            -1.06151,46.94129,0
            -1.06166,46.94135,0
            -1.06187,46.94141,0
            -1.06208,46.94145,0
            -1.0623,46.94153,0
            -1.06239,46.94156,0
            -1.06316,46.94195,0
            -1.06311,46.94201,0
            -1.06355,46.94226,0
            -1.06411,46.94191,0
            -1.06436,46.94236,0
            -1.06437,46.94238,0
            -1.06448,46.94235,0
            -1.06458,46.94236,0
            -1.06458,46.94234,0
            -1.06461,46.94228,0
            -1.06468,46.94214,0
            -1.06468,46.94211,0
            -1.06471,46.94202,0
            -1.06483,46.94199,0
            -1.06495,46.94174,0
            -1.06497,46.94169,0
            -1.06507,46.9417,0
            -1.0651,46.94165,0
            -1.06514,46.94166,0
            -1.06519,46.94158,0
            -1.06526,46.94159,0
            -1.0654,46.94138,0
            -1.06552,46.94137,0
            -1.06556,46.94133,0
            -1.06577,46.94092,0
            -1.0658,46.94081,0
            -1.06627,46.93988,0
            -1.06645,46.93994,0
            -1.06661,46.93963,0
            -1.06677,46.93935,0
            -1.06683,46.93935,0
            -1.06685,46.93931,0
            -1.06684,46.93918,0
            -1.06684,46.93916,0
            -1.06698,46.93895,0
            -1.06701,46.93894,0
            -1.06618,46.9387,0
            -1.06607,46.9391,0
            -1.06602,46.93919,0
            -1.06601,46.9392,0
            -1.06511,46.93884,0
            -1.0651,46.93886,0
            -1.06511,46.93884,0
            -1.06516,46.93855,0
            -1.06522,46.93845,0
            -1.06321,46.93816,0
            -1.06222,46.93798,0
            -1.06163,46.9376,0
            -1.06123,46.93738,0
            -1.06096,46.93748,0
            -1.06011,46.9373,0
            -1.059688,46.9368588,0
            -1.05934,46.93651,0
            -1.05965,46.93639,0
            -1.05945,46.93634,0
            -1.05939,46.93631,0
            -1.05939,46.93628,0
            -1.0596,46.93525,0
            -1.05959,46.93518,0
            -1.05952,46.9351,0
            -1.05903,46.93481,0
            -1.05883,46.93465,0
            -1.05852,46.93387,0
            -1.05847,46.93381,0
            -1.05758,46.93297,0
            -1.05751,46.93296,0
            -1.05697,46.93309,0
            -1.05691,46.93297,0
            -1.05688,46.93292,0
            -1.05675,46.93265,0
            -1.05652,46.93218,0
            -1.05645,46.9321,0
            -1.05637,46.93203,0
            -1.05627,46.93198,0
            -1.05616,46.93193,0
            -1.05576,46.9318,0
            -1.05548,46.9317,0
            -1.05537,46.93165,0
            -1.05532,46.93162,0
            -1.05531,46.93159,0
            -1.05528,46.93155,0
            -1.05523,46.93151,0
            -1.05517,46.93148,0
            -1.0551,46.93146,0
            -1.05507,46.93145,0
            -1.0549,46.93132,0
            -1.05474,46.93109,0
            -1.05472,46.93106,0
            -1.05483,46.931,0
            -1.0547,46.93072,0
            -1.05441,46.93012,0
            -1.05429,46.92985,0
            -1.05436,46.92967,0
            -1.0543,46.92958,0
            -1.05422,46.92953,0
            -1.05423,46.9295,0
            -1.05426,46.92937,0
            -1.05426,46.92899,0
            -1.05434,46.92854,0
            -1.05492,46.92807,0
            -1.05554,46.92767,0
            -1.05529,46.92666,0
            -1.05523,46.92615,0
            -1.0561,46.92518,0
            -1.05658,46.92514,0
            -1.05798,46.9247,0
            -1.0587,46.92404,0
            -1.05881,46.924,0
            -1.05886,46.92389,0
            -1.05934,46.92389,0
            -1.05963,46.9239,0
            -1.05977,46.92394,0
            -1.05994,46.92403,0
            -1.06037,46.92437,0
            -1.0608,46.92463,0
            -1.06157,46.92506,0
            -1.06159,46.92507,0
            -1.06159,46.92516,0
            -1.06154,46.92521,0
            -1.06031,46.92584,0
            -1.05957,46.92621,0
            -1.05951,46.92625,0
            -1.0594,46.92623,0
            -1.05909,46.92622,0
            -1.05886,46.92628,0
            -1.05776,46.92656,0
            -1.05671,46.92695,0
            -1.05614,46.92729,0
            -1.05571,46.92756,0
            -1.05556,46.92855,0
            -1.05692,46.92943,0
            -1.05823,46.93003,0
            -1.05904,46.92982,0
            -1.06005,46.93031,0
            -1.06048,46.93062,0
            -1.06206,46.9306,0
            -1.06302,46.93006,0
            -1.06382,46.92926,0
            -1.06399,46.92905,0
            -1.06447,46.92885,0
            -1.06461,46.92881,0
            -1.06526,46.92879,0
            -1.06542,46.92876,0
            -1.0656,46.9287,0
            -1.06573,46.92867,0
            -1.06623,46.9287,0
            -1.06654,46.92869,0
            -1.06682,46.92867,0
            -1.06736,46.92853,0
            -1.06787,46.92841,0
            -1.06788,46.92841,0
            -1.06787,46.92841,0
            -1.06811,46.92864,0
            -1.06833,46.92886,0
            -1.06845,46.92904,0
            -1.06849,46.92917,0
            -1.06847,46.92928,0
            -1.06857,46.92957,0
            -1.06879,46.93075,0
            -1.06892,46.93134,0
            -1.06901,46.93178,0
            -1.06959,46.93264,0
            -1.06985,46.93285,0
            -1.06985,46.93289,0
            -1.06975,46.9331,0
            -1.06959,46.93369,0
            -1.06961,46.93421,0
            -1.06974,46.93454,0
            -1.06998,46.93499,0
            -1.07011,46.93593,0
            -1.07034,46.93647,0
            -1.07072,46.93706,0
            -1.07104,46.93756,0
            -1.0711266,46.9377758,0
            -1.0712261,46.9378051,0
            -1.07141,46.93785,0
            -1.07145,46.93787,0
            -1.07271,46.93844,0
            -1.07289,46.93854,0
            -1.07293,46.93857,0
            -1.07302,46.93866,0
            -1.07337,46.939,0
            -1.07339,46.93902,0
            -1.073,46.93913,0
            -1.07298,46.93981,0
            -1.07231,46.94014,0
            -1.07288,46.9407,0
            -1.07336,46.94122,0
            -1.0737395,46.9411733,0
            -1.0741,46.94118,0
            -1.07428,46.94114,0
            -1.07518,46.94093,0
            -1.07535,46.94122,0
            -1.07583,46.94251,0
            -1.07583,46.94252,0
            -1.07683,46.9424,0
            -1.07775,46.9422,0
            -1.07815,46.94207,0
            -1.0787,46.94197,0
            -1.07924,46.94177,0
            -1.07936,46.9417,0
            -1.07975,46.9418,0
            -1.07978,46.94181,0
            -1.0798,46.94184,0
            -1.0798,46.9423,0
            -1.0789,46.94287,0
            -1.07862,46.94316,0
            -1.07851,46.94332,0
            -1.07805,46.94322,0
            -1.07813,46.9427,0
            -1.07783,46.94265,0
            -1.07783,46.94241,0
            -1.07724,46.94252,0
            -1.07695,46.9427,0
            -1.07588,46.94278,0
            -1.07582,46.94253,0
            -1.07527,46.94264,0
            -1.07479,46.94267,0
            -1.07485,46.94306,0
            -1.0747,46.94325,0
            -1.07449,46.94322,0
            -1.07384,46.94323,0
            -1.07355,46.94313,0
            -1.07313,46.94316,0
            -1.07295,46.94335,0
            -1.07289,46.94343,0
            -1.07284,46.94351,0
            -1.07283,46.94357,0
            -1.0728,46.94362,0
            -1.07257,46.9439,0
            -1.07282,46.94399,0
            -1.07254,46.94436,0
            -1.07105,46.94389,0
            -1.07071,46.94437,0
            -1.07226,46.94472,0
            -1.07226,46.94473,0
            -1.07234,46.94485,0
            -1.07245,46.94493,0
            -1.07268,46.945,0
            -1.07319,46.94512,0
            -1.07348,46.94524,0
            -1.07398,46.94534,0
            -1.07427,46.94545,0
            -1.07428,46.94547,0
            -1.07429,46.94554,0
            -1.07422,46.94566,0
            -1.07388,46.94599,0
            -1.07368,46.94602,0
            -1.07354,46.94603,0
            -1.0718,46.94539,0
            -1.07125,46.94535,0
            -1.07112,46.94537,0
            -1.07095,46.94544,0
            -1.07079,46.94555,0
            -1.0707,46.94566,0
            -1.07069,46.94569,0
            -1.07062,46.9456,0
            -1.07053,46.94555,0
            -1.07045,46.94549,0
            -1.0704,46.94542,0
            -1.07035,46.94535,0
            -1.07034,46.94518,0
            -1.07026,46.94507,0
            -1.07023,46.94497,0
            -1.07021,46.94484,0
            -1.07012,46.94478,0
            -1.06996,46.94472,0
            -1.06989,46.94472,0
            -1.06986,46.94472,0
            -1.06975,46.94493,0
            -1.06967,46.945,0
            -1.06943,46.94515,0
            -1.06915,46.94526,0
            -1.06898,46.94542,0
            -1.06899,46.94542,0
            -1.06898,46.94542,0
            -1.06829,46.94511,0
            -1.06793,46.94499,0
            -1.06776,46.94493,0
            -1.06772,46.94494,0
            -1.0676076,46.944988,0
            -1.0674071,46.9448932,0
            -1.0671747,46.94513,0
            -1.0668234,46.9455041,0
            -1.06626,46.94525,0
            -1.0662,46.9452,0
            -1.06607,46.94513,0
            -1.06602,46.94506,0
            -1.06601,46.94497,0
            -1.06606,46.9449,0
            -1.06608,46.94483,0
            -1.06615,46.94474,0
            -1.06616,46.94467,0
            -1.06629,46.94454,0
            -1.06543,46.94409,0
            -1.0651886,46.9448325,0
            -1.06548,46.94391,0
            -1.06555,46.94371,0
            -1.0656,46.94367,0
            -1.06573,46.94374,0
            -1.0664,46.94411,0
            -1.06649,46.94402,0
            -1.06663,46.94387,0
            -1.06665,46.94376,0
            -1.06659,46.94364,0
            -1.06651,46.94355,0
            -1.06652,46.94349,0
            -1.06647,46.94347,0
            -1.06635,46.94344,0
            -1.06632,46.94341,0
            -1.06579,46.94324,0
            -1.06567,46.94327,0
            -1.0653322,46.9431151,0
            -1.06497,46.94311,0
            -1.06494,46.94311,0
            -1.06494,46.94315,0
            -1.06485,46.94316,0
            -1.06477,46.94325,0
            -1.06464,46.94342,0
            -1.06423,46.94337,0
            -1.06389,46.94341,0
            -1.06388,46.94349,0
            -1.0638,46.94398,0
            -1.06367,46.94438,0
            -1.0635,46.94476,0
            -1.06396,46.94495,0
            -1.06398,46.94498,0
            -1.06442,46.94516,0
            -1.06428,46.94604,0
            -1.06422,46.94626,0
            -1.06401,46.9465,0
            -1.06394,46.94644,0
            -1.06338,46.94607,0
            -1.06242,46.94551,0
            -1.06187,46.94556,0
            -1.06136,46.94556,0
            -1.0611,46.94549,0
            -1.06044,46.9449,0
            -1.06038,46.94477,0
            -1.06051,46.9446,0
            -1.06081,46.94425,0
            -1.06117,46.94389,0
            -1.06116,46.94378,0
            -1.06116,46.94375,0
            -1.06128,46.94374,0
            -1.06143,46.94371,0
            -1.06172,46.94362,0
            -1.06211,46.94347,0
            -1.06242,46.94336,0
            -1.06237,46.94332,0
            -1.06219,46.94322,0
            -1.06216,46.94315,0
            -1.06218,46.94307,0
            -1.06245,46.94278,0
            -1.06201,46.94258,0
            -1.06166,46.94242,0
            -1.06164,46.9424,0
            -1.06126,46.94266,0
            -1.06118,46.94267,0
            -1.06106,46.94262,0
            -1.0612549,46.9424721,0
            -1.0620842,46.9418174,0
            -1.0616587,46.9415055,0
            -1.0614046,46.9412963,0
            -1.0612345,46.9413975,0
            -1.0611065,46.9413638,0
            -1.061,46.94144,0
          </coordinates>
        </LineString>
      </Placemark>
      <Placemark>
        <name>KM5</name>
        <styleUrl>#icon-1499-FFD600-nodesc</styleUrl>
        <Point>
          <coordinates>
            -1.0402066,46.9406061,0
          </coordinates>
        </Point>
      </Placemark>
      <Placemark>
        <name>KM10</name>
        <styleUrl>#icon-1499-FFD600-nodesc</styleUrl>
        <Point>
          <coordinates>
            -1.0545663,46.9302587,0
          </coordinates>
        </Point>
      </Placemark>
      <Placemark>
        <name>KM15</name>
        <styleUrl>#icon-1499-FFD600-nodesc</styleUrl>
        <Point>
          <coordinates>
            -1.0773436,46.9422436,0
          </coordinates>
        </Point>
      </Placemark>
    </Folder>
    <Folder>
      <name>Parcours 10km</name>
      <Placemark>
        <name>route</name>
        <styleUrl>#line-7CB342-3503-nodesc</styleUrl>
        <LineString>
          <tessellate>1</tessellate>
          <coordinates>
            -1.06042,46.94111,0
            -1.06016,46.94136,0
            -1.05968,46.94175,0
            -1.05936,46.94196,0
            -1.05894,46.94188,0
            -1.05867,46.94172,0
            -1.05858,46.94156,0
            -1.05865,46.94133,0
            -1.05865,46.94134,0
            -1.0586731,46.941107,0
            -1.0589903,46.9407562,0
            -1.0588993,46.9406844,0
            -1.0583992,46.9410267,0
            -1.0580097,46.9413626,0
            -1.057824,46.9416693,0
            -1.058,46.9418,0
            -1.05788,46.94191,0
            -1.05784,46.94195,0
            -1.05784,46.94203,0
            -1.0578,46.94207,0
            -1.05768,46.94211,0
            -1.05761,46.94241,0
            -1.0576,46.94256,0
            -1.05756,46.94264,0
            -1.05748,46.94272,0
            -1.05721,46.94291,0
            -1.05694,46.94299,0
            -1.05675,46.94298,0
            -1.05658,46.94291,0
            -1.05644,46.9428,0
            -1.05639,46.94274,0
            -1.05612,46.94241,0
            -1.05603,46.94229,0
            -1.05589,46.94222,0
            -1.05569,46.94215,0
            -1.05552,46.94211,0
            -1.05533,46.94209,0
            -1.05531,46.94208,0
            -1.05449,46.94155,0
            -1.0543,46.94144,0
            -1.05397,46.94116,0
            -1.05373,46.9409,0
            -1.05365,46.94084,0
            -1.05314,46.94041,0
            -1.05294,46.94023,0
            -1.05297,46.94015,0
            -1.05334,46.93969,0
            -1.05354,46.93959,0
            -1.05398,46.93949,0
            -1.05442,46.93936,0
            -1.05453,46.93959,0
            -1.05467,46.93964,0
            -1.05476,46.93963,0
            -1.05486,46.9396,0
            -1.05497,46.93953,0
            -1.0551,46.93939,0
            -1.0552,46.93938,0
            -1.05537,46.93944,0
            -1.05569,46.93956,0
            -1.05602,46.93963,0
            -1.05666,46.93982,0
            -1.05727,46.94009,0
            -1.05754,46.94019,0
            -1.05806,46.94032,0
            -1.05846,46.94045,0
            -1.05883,46.94059,0
            -1.059,46.94069,0
            -1.05931,46.94071,0
            -1.05962,46.94072,0
            -1.05982,46.94069,0
            -1.05997,46.94071,0
            -1.06012,46.94076,0
            -1.06067,46.94105,0
            -1.06074,46.94109,0
            -1.06101,46.94108,0
            -1.06111,46.94113,0
            -1.06139,46.94124,0
            -1.06151,46.94129,0
            -1.06155,46.94131,0
            -1.06166,46.94135,0
            -1.06187,46.94141,0
            -1.06208,46.94145,0
            -1.0623,46.94153,0
            -1.06251,46.9416,0
            -1.06312,46.94197,0
            -1.06311,46.942,0
            -1.06357,46.94226,0
            -1.0641,46.94193,0
            -1.06432,46.9423,0
            -1.06437,46.94238,0
            -1.06448,46.94235,0
            -1.06458,46.94236,0
            -1.06458,46.94234,0
            -1.06461,46.94228,0
            -1.06468,46.94214,0
            -1.06468,46.94211,0
            -1.06471,46.94202,0
            -1.06483,46.94199,0
            -1.06495,46.94174,0
            -1.06497,46.94169,0
            -1.06507,46.9417,0
            -1.0651,46.94165,0
            -1.06514,46.94166,0
            -1.06519,46.94158,0
            -1.06526,46.94159,0
            -1.0654,46.94138,0
            -1.06547,46.94137,0
            -1.06552,46.94137,0
            -1.06556,46.94133,0
            -1.06577,46.94092,0
            -1.0658,46.94081,0
            -1.06627,46.93988,0
            -1.06645,46.93994,0
            -1.06661,46.93963,0
            -1.06677,46.93935,0
            -1.06683,46.93935,0
            -1.06685,46.93931,0
            -1.06684,46.93918,0
            -1.06684,46.93916,0
            -1.06698,46.93895,0
            -1.06701,46.93893,0
            -1.06618,46.9387,0
            -1.06607,46.9391,0
            -1.06601,46.9392,0
            -1.06519,46.93888,0
            -1.06511,46.93884,0
            -1.06516,46.93855,0
            -1.06522,46.93846,0
            -1.06353,46.93821,0
            -1.06222,46.93798,0
            -1.06123,46.93738,0
            -1.06096,46.93748,0
            -1.06011,46.9373,0
            -1.05934,46.93651,0
            -1.05971,46.9364,0
            -1.05983,46.93642,0
            -1.06008,46.93646,0
            -1.06038,46.93648,0
            -1.06066,46.93648,0
            -1.06089,46.93647,0
            -1.06117,46.93643,0
            -1.06132,46.93643,0
            -1.06144,46.93645,0
            -1.06158,46.9365,0
            -1.06169,46.93652,0
            -1.06248,46.93654,0
            -1.06294,46.93654,0
            -1.06287,46.93641,0
            -1.06274,46.93627,0
            -1.06225,46.9359,0
            -1.06219,46.93584,0
            -1.06214,46.93576,0
            -1.06207,46.93545,0
            -1.06198,46.93531,0
            -1.06196,46.93516,0
            -1.06206,46.93498,0
            -1.06208,46.93484,0
            -1.06223,46.93468,0
            -1.06235,46.93459,0
            -1.06282,46.93431,0
            -1.06314,46.93416,0
            -1.06388,46.93409,0
            -1.06396,46.9341,0
            -1.06399,46.93413,0
            -1.06487,46.93492,0
            -1.06512,46.93504,0
            -1.06524,46.93507,0
            -1.0654,46.93504,0
            -1.06543,46.93512,0
            -1.06559,46.93528,0
            -1.06574,46.93548,0
            -1.06582,46.93559,0
            -1.06587,46.93569,0
            -1.06591,46.93568,0
            -1.06672,46.93569,0
            -1.06681,46.93568,0
            -1.06763,46.93558,0
            -1.06776,46.93564,0
            -1.06805,46.93653,0
            -1.06811,46.93657,0
            -1.06817,46.9366,0
            -1.06872,46.93651,0
            -1.06958,46.93635,0
            -1.0696,46.93635,0
            -1.06973,46.93639,0
            -1.0701,46.937,0
            -1.07004,46.93711,0
            -1.07008,46.9372,0
            -1.07039,46.93712,0
            -1.07072,46.93706,0
            -1.07104,46.93756,0
            -1.07109,46.93772,0
            -1.0711266,46.9377758,0
            -1.0712261,46.9378051,0
            -1.07141,46.93785,0
            -1.07145,46.93787,0
            -1.07271,46.93844,0
            -1.07289,46.93854,0
            -1.07293,46.93857,0
            -1.07337,46.939,0
            -1.07297,46.93908,0
            -1.07298,46.93967,0
            -1.07298,46.93981,0
            -1.07231,46.94014,0
            -1.07277,46.94062,0
            -1.07336,46.94122,0
            -1.0737166,46.9411762,0
            -1.0741,46.94118,0
            -1.07428,46.94114,0
            -1.07518,46.94093,0
            -1.07535,46.94122,0
            -1.07582,46.94249,0
            -1.07583,46.94252,0
            -1.07527,46.94264,0
            -1.07478,46.94268,0
            -1.07477,46.94268,0
            -1.07478,46.94268,0
            -1.07486,46.94304,0
            -1.0747,46.94325,0
            -1.07449,46.94322,0
            -1.07384,46.94323,0
            -1.07355,46.94313,0
            -1.07313,46.94316,0
            -1.07295,46.94335,0
            -1.07289,46.94343,0
            -1.07284,46.94352,0
            -1.0728,46.94362,0
            -1.07257,46.9439,0
            -1.07282,46.94399,0
            -1.07254,46.94436,0
            -1.07098,46.94384,0
            -1.07074,46.94432,0
            -1.07229,46.94478,0
            -1.07234,46.94485,0
            -1.07245,46.94493,0
            -1.07268,46.945,0
            -1.07319,46.94512,0
            -1.07348,46.94524,0
            -1.07398,46.94534,0
            -1.07427,46.94545,0
            -1.07429,46.94554,0
            -1.07422,46.94566,0
            -1.07388,46.94599,0
            -1.07368,46.94602,0
            -1.07343,46.94603,0
            -1.07339,46.94605,0
            -1.0718,46.94532,0
            -1.07177,46.94536,0
            -1.07172,46.94537,0
            -1.07155,46.94535,0
            -1.07133,46.94534,0
            -1.07112,46.94537,0
            -1.07095,46.94544,0
            -1.07079,46.94555,0
            -1.07078,46.94557,0
            -1.0707,46.94566,0
            -1.07069,46.94569,0
            -1.07062,46.9456,0
            -1.07053,46.94555,0
            -1.07045,46.94549,0
            -1.0704,46.94542,0
            -1.07035,46.94535,0
            -1.07034,46.94518,0
            -1.07026,46.94507,0
            -1.07023,46.94497,0
            -1.07021,46.94484,0
            -1.07012,46.94478,0
            -1.06996,46.94472,0
            -1.06986,46.94472,0
            -1.06982,46.94479,0
            -1.06975,46.94493,0
            -1.06967,46.945,0
            -1.06943,46.94515,0
            -1.06915,46.94526,0
            -1.06898,46.94542,0
            -1.06829,46.94511,0
            -1.06793,46.94499,0
            -1.06776,46.94493,0
            -1.06772,46.94494,0
            -1.0676076,46.944988,0
            -1.0674071,46.9448932,0
            -1.0672015,46.9451007,0
            -1.067034,46.9452803,0
            -1.0668234,46.9455041,0
            -1.06626,46.94525,0
            -1.0662,46.9452,0
            -1.06607,46.94513,0
            -1.06602,46.94506,0
            -1.06601,46.94497,0
            -1.06606,46.9449,0
            -1.06608,46.94483,0
            -1.06615,46.94474,0
            -1.06616,46.94467,0
            -1.06629,46.94454,0
            -1.06543,46.94409,0
            -1.0651886,46.9448325,0
            -1.06555,46.94364,0
            -1.0656,46.94367,0
            -1.06637,46.9441,0
            -1.0664,46.94411,0
            -1.06663,46.94387,0
            -1.06665,46.94376,0
            -1.06659,46.94364,0
            -1.06651,46.94355,0
            -1.06652,46.94349,0
            -1.06649,46.94348,0
            -1.06647,46.94347,0
            -1.06635,46.94344,0
            -1.06632,46.94341,0
            -1.06579,46.94325,0
            -1.06567,46.94327,0
            -1.06535,46.94312,0
            -1.06497,46.94311,0
            -1.06494,46.94311,0
            -1.06494,46.94315,0
            -1.06485,46.94316,0
            -1.06477,46.94325,0
            -1.06466,46.94339,0
            -1.06464,46.94342,0
            -1.06423,46.94337,0
            -1.06389,46.94341,0
            -1.06387,46.94341,0
            -1.06389,46.94341,0
            -1.06386,46.94363,0
            -1.0638,46.94398,0
            -1.06367,46.94438,0
            -1.0635,46.94476,0
            -1.06355,46.94478,0
            -1.06396,46.94495,0
            -1.06398,46.94498,0
            -1.06442,46.94516,0
            -1.06428,46.94605,0
            -1.06422,46.94626,0
            -1.06402,46.94651,0
            -1.06394,46.94644,0
            -1.06338,46.94607,0
            -1.06242,46.94551,0
            -1.06231,46.94552,0
            -1.06187,46.94556,0
            -1.06136,46.94556,0
            -1.0611,46.94549,0
            -1.06044,46.9449,0
            -1.06038,46.94477,0
            -1.06051,46.9446,0
            -1.06081,46.94425,0
            -1.06117,46.94389,0
            -1.06116,46.94375,0
            -1.06128,46.94374,0
            -1.06143,46.94371,0
            -1.06172,46.94362,0
            -1.06211,46.94347,0
            -1.06235,46.94338,0
            -1.06242,46.94336,0
            -1.06238,46.94332,0
            -1.06219,46.94322,0
            -1.06216,46.94315,0
            -1.06218,46.94307,0
            -1.06245,46.94278,0
            -1.06201,46.94258,0
            -1.06164,46.9424,0
            -1.06126,46.94266,0
            -1.06118,46.94267,0
            -1.06106,46.94262,0
            -1.0620842,46.9418174,0
            -1.0614046,46.9412963,0
            -1.06131,46.94137,0
            -1.0612345,46.9413975,0
            -1.0611065,46.9413638,0
            -1.06095,46.94147,0
          </coordinates>
        </LineString>
      </Placemark>
      <Placemark>
        <name>KM5</name>
        <styleUrl>#icon-1499-01579B-nodesc</styleUrl>
        <Point>
          <coordinates>
            -1.07072,46.93706,0
          </coordinates>
        </Point>
      </Placemark>
    </Folder>
    <Folder>
      <name>Commissaires</name>
      <Placemark>
        <name>Départ</name>
        <styleUrl>#icon-1574-0F9D58-nodesc</styleUrl>
        <Point>
          <coordinates>
            -1.06042,46.94111,0
          </coordinates>
        </Point>
      </Placemark>
      <Placemark>
        <name>Arrivée</name>
        <styleUrl>#icon-1661-FF5252-nodesc</styleUrl>
        <Point>
          <coordinates>
            -1.06095,46.94147,0
          </coordinates>
        </Point>
      </Placemark>
      <Placemark>
        <name>Point A</name>
        <styleUrl>#icon-1899-F9A825-nodesc</styleUrl>
        <Point>
          <coordinates>
            -1.0585788,46.9412645,0
          </coordinates>
        </Point>
      </Placemark>
      <Placemark>
        <name>Point B1</name>
        <styleUrl>#icon-1899-F9A825-nodesc</styleUrl>
        <Point>
          <coordinates>
            -1.05294,46.94023,0
          </coordinates>
        </Point>
      </Placemark>
      <Placemark>
        <name>Point B2</name>
        <styleUrl>#icon-1899-F9A825-nodesc</styleUrl>
        <Point>
          <coordinates>
            -1.05442,46.93936,0
          </coordinates>
        </Point>
      </Placemark>
      <Placemark>
        <name>Point C1</name>
        <styleUrl>#icon-1899-F9A825-nodesc</styleUrl>
        <Point>
          <coordinates>
            -1.0522304,46.9416424,0
          </coordinates>
        </Point>
      </Placemark>
      <Placemark>
        <name>Point C2</name>
        <styleUrl>#icon-1899-F9A825-nodesc</styleUrl>
        <Point>
          <coordinates>
            -1.0528243,46.9424115,0
          </coordinates>
        </Point>
      </Placemark>
      <Placemark>
        <name>Point D</name>
        <styleUrl>#icon-1899-F9A825-nodesc</styleUrl>
        <Point>
          <coordinates>
            -1.0502034,46.9447643,0
          </coordinates>
        </Point>
      </Placemark>
      <Placemark>
        <name>Point E</name>
        <styleUrl>#icon-1899-F9A825-nodesc</styleUrl>
        <Point>
          <coordinates>
            -1.04383,46.9406,0
          </coordinates>
        </Point>
      </Placemark>
      <Placemark>
        <name>Point F</name>
        <styleUrl>#icon-1899-F9A825-nodesc</styleUrl>
        <Point>
          <coordinates>
            -1.0609028,46.9410673,0
          </coordinates>
        </Point>
      </Placemark>
      <Placemark>
        <name>Point G1</name>
        <styleUrl>#icon-1899-F9A825-nodesc</styleUrl>
        <Point>
          <coordinates>
            -1.06311,46.94201,0
          </coordinates>
        </Point>
      </Placemark>
      <Placemark>
        <name>Point G2</name>
        <styleUrl>#icon-1899-F9A825-nodesc</styleUrl>
        <Point>
          <coordinates>
            -1.06245,46.94278,0
          </coordinates>
        </Point>
      </Placemark>
      <Placemark>
        <name>Point H</name>
        <styleUrl>#icon-1899-F9A825-nodesc</styleUrl>
        <Point>
          <coordinates>
            -1.0642368,46.9421309,0
          </coordinates>
        </Point>
      </Placemark>
      <Placemark>
        <name>Point I</name>
        <styleUrl>#icon-1899-F9A825-nodesc</styleUrl>
        <Point>
          <coordinates>
            -1.06497,46.94169,0
          </coordinates>
        </Point>
      </Placemark>
      <Placemark>
        <name>Point J</name>
        <styleUrl>#icon-1899-F9A825-nodesc</styleUrl>
        <Point>
          <coordinates>
            -1.0658,46.94081,0
          </coordinates>
        </Point>
      </Placemark>
      <Placemark>
        <name>Point K</name>
        <styleUrl>#icon-1899-F9A825-nodesc</styleUrl>
        <Point>
          <coordinates>
            -1.0663995,46.9398923,0
          </coordinates>
        </Point>
      </Placemark>
      <Placemark>
        <name>Point L</name>
        <styleUrl>#icon-1899-F9A825-nodesc</styleUrl>
        <Point>
          <coordinates>
            -1.0652354,46.9384978,0
          </coordinates>
        </Point>
      </Placemark>
      <Placemark>
        <name>Point M</name>
        <styleUrl>#icon-1899-F9A825-nodesc</styleUrl>
        <Point>
          <coordinates>
            -1.059694,46.9363659,0
          </coordinates>
        </Point>
      </Placemark>
      <Placemark>
        <name>Point N1</name>
        <styleUrl>#icon-1899-F9A825-nodesc</styleUrl>
        <Point>
          <coordinates>
            -1.0654,46.93504,0
          </coordinates>
        </Point>
      </Placemark>
      <Placemark>
        <name>Point N2</name>
        <styleUrl>#icon-1899-F9A825-nodesc</styleUrl>
        <Point>
          <coordinates>
            -1.06587,46.93569,0
          </coordinates>
        </Point>
      </Placemark>
      <Placemark>
        <name>Point O</name>
        <styleUrl>#icon-1899-F9A825-nodesc</styleUrl>
        <Point>
          <coordinates>
            -1.05523,46.93151,0
          </coordinates>
        </Point>
      </Placemark>
      <Placemark>
        <name>Point P1</name>
        <styleUrl>#icon-1899-F9A825-nodesc</styleUrl>
        <Point>
          <coordinates>
            -1.05422,46.92953,0
          </coordinates>
        </Point>
      </Placemark>
      <Placemark>
        <name>Point P2</name>
        <styleUrl>#icon-1899-F9A825-nodesc</styleUrl>
        <Point>
          <coordinates>
            -1.05554,46.92767,0
          </coordinates>
        </Point>
      </Placemark>
      <Placemark>
        <name>Point Q</name>
        <styleUrl>#icon-1899-F9A825-nodesc</styleUrl>
        <Point>
          <coordinates>
            -1.0656,46.9287,0
          </coordinates>
        </Point>
      </Placemark>
      <Placemark>
        <name>Point S</name>
        <styleUrl>#icon-1899-F9A825-nodesc</styleUrl>
        <Point>
          <coordinates>
            -1.07289,46.93854,0
          </coordinates>
        </Point>
      </Placemark>
      <Placemark>
        <name>Point T</name>
        <styleUrl>#icon-1899-F9A825-nodesc</styleUrl>
        <Point>
          <coordinates>
            -1.0737088,46.9411417,0
          </coordinates>
        </Point>
      </Placemark>
      <Placemark>
        <name>Point U</name>
        <styleUrl>#icon-1899-F9A825-nodesc</styleUrl>
        <Point>
          <coordinates>
            -1.0758118,46.9425677,0
          </coordinates>
        </Point>
      </Placemark>
      <Placemark>
        <name>Point V1</name>
        <styleUrl>#icon-1899-F9A825-nodesc</styleUrl>
        <Point>
          <coordinates>
            -1.0729005,46.9433458,0
          </coordinates>
        </Point>
      </Placemark>
      <Placemark>
        <name>Point V2</name>
        <styleUrl>#icon-1899-F9A825-nodesc</styleUrl>
        <Point>
          <coordinates>
            -1.0725439,46.9439292,0
          </coordinates>
        </Point>
      </Placemark>
      <Placemark>
        <name>Point W1</name>
        <styleUrl>#icon-1899-F9A825-nodesc</styleUrl>
        <Point>
          <coordinates>
            -1.06898,46.94542,0
          </coordinates>
        </Point>
      </Placemark>
      <Placemark>
        <name>Point W2</name>
        <styleUrl>#icon-1899-F9A825-nodesc</styleUrl>
        <Point>
          <coordinates>
            -1.06753,46.9449461,0
          </coordinates>
        </Point>
      </Placemark>
      <Placemark>
        <name>Point X1</name>
        <styleUrl>#icon-1899-F9A825-nodesc</styleUrl>
        <Point>
          <coordinates>
            -1.065173,46.9448689,0
          </coordinates>
        </Point>
      </Placemark>
      <Placemark>
        <name>Point X2</name>
        <styleUrl>#icon-1899-F9A825-nodesc</styleUrl>
        <Point>
          <coordinates>
            -1.0656,46.94367,0
          </coordinates>
        </Point>
      </Placemark>
      <Placemark>
        <name>Point Y1</name>
        <styleUrl>#icon-1899-F9A825-nodesc</styleUrl>
        <Point>
          <coordinates>
            -1.0648864,46.9431086,0
          </coordinates>
        </Point>
      </Placemark>
      <Placemark>
        <name>Point Y2</name>
        <styleUrl>#icon-1899-F9A825-nodesc</styleUrl>
        <Point>
          <coordinates>
            -1.06389,46.94341,0
          </coordinates>
        </Point>
      </Placemark>
      <Placemark>
        <name>Point Z1</name>
        <styleUrl>#icon-1899-F9A825-nodesc</styleUrl>
        <Point>
          <coordinates>
            -1.0639243,46.9449695,0
          </coordinates>
        </Point>
      </Placemark>
      <Placemark>
        <name>Point Z2</name>
        <styleUrl>#icon-1899-F9A825-nodesc</styleUrl>
        <Point>
          <coordinates>
            -1.06428,46.94605,0
          </coordinates>
        </Point>
      </Placemark>
      <Placemark>
        <name>Point @1</name>
        <styleUrl>#icon-1899-F9A825-nodesc</styleUrl>
        <Point>
          <coordinates>
            -1.06116,46.94375,0
          </coordinates>
        </Point>
      </Placemark>
      <Placemark>
        <name>Point @2</name>
        <styleUrl>#icon-1899-F9A825-nodesc</styleUrl>
        <Point>
          <coordinates>
            -1.06242,46.94336,0
          </coordinates>
        </Point>
      </Placemark>
    </Folder>
    <Folder>
      <name>Parkings</name>
      <Placemark>
        <name>Parking Bénévoles</name>
        <styleUrl>#poly-0F9D58-3601-191-nodesc</styleUrl>
        <Polygon>
          <outerBoundaryIs>
            <LinearRing>
              <tessellate>1</tessellate>
              <coordinates>
                -1.0617409,46.9414356,0
                -1.061993,46.9416664,0
                -1.0620789,46.9416664,0
                -1.062154,46.9416371,0
                -1.0622237,46.9415309,0
                -1.0620091,46.941443,0
                -1.061698,46.941377,0
                -1.0617409,46.9414356,0
              </coordinates>
            </LinearRing>
          </outerBoundaryIs>
        </Polygon>
      </Placemark>
    </Folder>
  </Document>
</kml>
