{"type":"FeatureCollection","features":[{"type":"Feature","properties":{"distance":17,"name":"GaubreTrail 17 km"},"geometry":{"type":"LineString","coordinates":[[-1.0716363,46.9452633],[-1.0725023,46.9449303],[-1.0742939,46.9454795],[-1.0739188,46.9460869],[-1.073328,46.9460799],[-1.0719273,46.9470593],[-1.0731823,46.9481243],[-1.0722233,46.9484753],[-1.0721093,46.9483943],[-1.0718901,46.9483652],[-1.0714908,46.948358],[-1.0709693,46.9485793],[-1.0706623,46.9489953],[-1.0702864,46.9494926],[-1.0705373,46.9500333],[-1.0713054,46.9510005],[-1.0715378,46.9516089],[-1.0719438,46.9513785],[-1.0720931,46.951754],[-1.0718673,46.9527253],[-1.0720494,46.9537553],[-1.0723781,46.9553647],[-1.0728498,46.9569433],[-1.0734289,46.9577896],[-1.0733854,46.9582813],[-1.0736823,46.9594303],[-1.0723523,46.9594603],[-1.0719793,46.9593093],[-1.0718493,46.9587793],[-1.0719233,46.9579663],[-1.0712153,46.9577323],[-1.0697584,46.9584973],[-1.0687283,46.9589583],[-1.0675913,46.9589983],[-1.0670443,46.9587843],[-1.0667646,46.9577062],[-1.0674016,46.9552852],[-1.0676316,46.9549832],[-1.0669767,46.9533412],[-1.0668856,46.9526992],[-1.067128,46.9504059],[-1.0666504,46.9503072],[-1.0635457,46.9482982],[-1.0615957,46.9477242],[-1.0602187,46.9477252],[-1.0584627,46.9474602],[-1.0561627,46.9458572],[-1.0555985,46.9463991],[-1.0554236,46.9470656],[-1.0540273,46.9475014],[-1.0537582,46.9478218],[-1.0504479,46.9481286],[-1.050638,46.9495856],[-1.0510978,46.9523062],[-1.0510488,46.953315],[-1.0535563,46.9539513],[-1.0546813,46.9546941],[-1.0522873,46.9566673],[-1.0508373,46.9566123],[-1.0504743,46.9562743],[-1.0498363,46.9560063],[-1.0479453,46.9561053],[-1.0476583,46.9546483],[-1.0474053,46.9544293],[-1.0473843,46.9535793],[-1.0467793,46.9540113],[-1.0462944,46.9541003],[-1.0464563,46.9537043],[-1.0451003,46.9536413],[-1.0449953,46.9539453],[-1.0453913,46.9541053],[-1.0447303,46.9542293],[-1.0441783,46.9541413],[-1.0439103,46.9538203],[-1.0439663,46.9534423],[-1.0434823,46.9534013],[-1.0427683,46.9534063],[-1.0427333,46.9537753],[-1.0425543,46.9539733],[-1.0417533,46.9538943],[-1.0411953,46.9540413],[-1.0402513,46.9537483],[-1.0399253,46.9531933],[-1.0394363,46.9526643],[-1.0381913,46.9523423],[-1.0378443,46.9520283],[-1.0378763,46.9518673],[-1.0372433,46.9512013],[-1.0389923,46.9501173],[-1.0387453,46.9499703],[-1.0388233,46.9498893],[-1.0381913,46.9497343],[-1.0374023,46.9490543],[-1.0371683,46.9485933],[-1.0365463,46.9480373],[-1.0364113,46.9480943],[-1.0364813,46.9483153],[-1.0362453,46.9483813],[-1.0364963,46.9488263],[-1.0358523,46.9489433],[-1.0357883,46.9483283],[-1.0352093,46.9483573],[-1.0352093,46.9488123],[-1.0354233,46.9487973],[-1.0353803,46.9480353],[-1.0352303,46.9477133],[-1.0358053,46.9476413],[-1.0361813,46.9475393],[-1.0360523,46.9473703],[-1.0355953,46.9472153],[-1.0352673,46.9471133],[-1.0347434,46.9468433],[-1.0344583,46.9466293],[-1.0344313,46.9461243],[-1.0350803,46.9455163],[-1.0355733,46.9447103],[-1.0346943,46.9434653],[-1.0343503,46.9431863],[-1.0330633,46.9429083],[-1.0327943,46.9425993],[-1.0327073,46.9419433],[-1.0325123,46.9415693],[-1.0328083,46.9413833],[-1.0339173,46.9411763],[-1.0340283,46.9405883],[-1.0338073,46.9401383],[-1.0340933,46.9398473],[-1.0350234,46.9395553],[-1.0363953,46.9407873],[-1.0372943,46.9405823],[-1.0383843,46.9405983],[-1.0403694,46.9404713],[-1.0414423,46.9416343],[-1.0413723,46.9420873],[-1.0420953,46.9422763],[-1.0425252,46.9420265],[-1.0432549,46.9420708],[-1.0436839,46.9418512],[-1.0437854,46.9413635],[-1.0437265,46.9408106],[-1.043899,46.9402839],[-1.0449664,46.9399357],[-1.0453627,46.9392106],[-1.0450464,46.9390459],[-1.046366,46.938232],[-1.0464412,46.9374124],[-1.04694,46.9374636],[-1.0477392,46.9371632],[-1.0487163,46.9366358],[-1.0491039,46.9365261],[-1.0494475,46.9361652],[-1.0504347,46.9362438],[-1.0504776,46.9358042],[-1.0516019,46.9350309],[-1.0530525,46.9338555],[-1.0517087,46.933198],[-1.0516028,46.9330213],[-1.0514023,46.9329659],[-1.051235,46.9330701],[-1.0508617,46.932983],[-1.0505286,46.9328409],[-1.0520441,46.9315404],[-1.0525161,46.9311741],[-1.0545476,46.9307966],[-1.0547252,46.9313517],[-1.0550262,46.931317],[-1.0554396,46.931502],[-1.055429,46.9316146],[-1.0564752,46.9320972],[-1.0569526,46.9330057],[-1.0576205,46.9329031],[-1.0586315,46.9339874],[-1.0587603,46.9346614],[-1.0595756,46.9351449],[-1.0593396,46.9363317],[-1.0597688,46.937013],[-1.0617932,46.9376439],[-1.0632822,46.9382204],[-1.0652121,46.9384903],[-1.0652196,46.9387369],[-1.066231,46.9391307],[-1.0667687,46.9392757],[-1.0685724,46.9397924],[-1.0689546,46.9391407],[-1.0713345,46.9378701],[-1.0729245,46.9386505],[-1.0732785,46.9390001],[-1.0729835,46.9391237],[-1.0729969,46.9398008],[-1.0724243,46.9400588],[-1.0727602,46.9406273],[-1.073386,46.9411137],[-1.0742031,46.9411592],[-1.0752554,46.9409548],[-1.0753398,46.9426448],[-1.0748543,46.9426194],[-1.0748673,46.943066],[-1.074747,46.9432639],[-1.0739108,46.9432481],[-1.0735464,46.9431377],[-1.0731388,46.943163],[-1.0725797,46.9437913],[-1.0706264,46.9432175],[-1.0699039,46.9446282],[-1.0714093,46.9449863]]}}]}