{"type":"FeatureCollection","features":[{"type":"Feature","properties":{"distance":26,"name":"GaubreTrail 26 km"},"geometry":{"type":"LineString","coordinates":[[-1.0716414,46.9452194],[-1.0724561,46.9448608],[-1.0728853,46.9438939],[-1.0706315,46.9431736],[-1.0689184,46.942945],[-1.069909,46.9445989],[-1.0695264,46.9450561],[-1.0691166,46.9455779],[-1.0677177,46.9450007],[-1.0664826,46.9463158],[-1.0653292,46.9466143],[-1.0649333,46.9467769],[-1.0643483,46.9465628],[-1.06239,46.9454991],[-1.0618124,46.9455468],[-1.0611043,46.9453856],[-1.0600743,46.9448876],[-1.0584221,46.9437449],[-1.0585293,46.9433054],[-1.0574178,46.9428485],[-1.0567784,46.9429557],[-1.056478,46.9427982],[-1.0560596,46.9422873],[-1.055582,46.9420464],[-1.0546352,46.9422849],[-1.0540867,46.9426093],[-1.0538064,46.9430216],[-1.0542088,46.9437247],[-1.0538172,46.9438566],[-1.0519718,46.944384],[-1.050148,46.9446916],[-1.04326,46.9475189],[-1.0421657,46.9477679],[-1.0381746,46.9476946],[-1.0368657,46.9477386],[-1.0353343,46.9479663],[-1.0351841,46.9476441],[-1.036135,46.9474696],[-1.0360063,46.9473011],[-1.0352211,46.9470441],[-1.0344117,46.9465601],[-1.0343851,46.9460551],[-1.0350339,46.9454467],[-1.0355274,46.944641],[-1.0346477,46.9433958],[-1.0343044,46.9431175],[-1.0330169,46.9428392],[-1.0327481,46.9425301],[-1.0326611,46.9418741],[-1.0324658,46.9415],[-1.0327621,46.9413141],[-1.030879,46.9402041],[-1.029667,46.9410611],[-1.0279703,46.941771],[-1.0274768,46.9418809],[-1.0273481,46.94213],[-1.0275001,46.9429151],[-1.0273001,46.9436441],[-1.0264931,46.9443531],[-1.0260551,46.9446131],[-1.0230176,46.9444945],[-1.0216443,46.945227],[-1.0204642,46.9455786],[-1.0197131,46.9460473],[-1.017574,46.9458875],[-1.01656,46.947151],[-1.0157598,46.9476733],[-1.014722,46.948734],[-1.0127772,46.9502807],[-1.0119833,46.9486694],[-1.012187,46.947899],[-1.0122837,46.9467651],[-1.013192,46.946503],[-1.01386,46.94566],[-1.0141571,46.9453721],[-1.0141194,46.9433972],[-1.0135763,46.9418577],[-1.0129755,46.9412131],[-1.0133189,46.9403048],[-1.0127396,46.9401362],[-1.0111621,46.9411181],[-1.0106636,46.9411196],[-1.009588,46.9406682],[-1.0086551,46.9410761],[-1.0079551,46.9411521],[-1.0073351,46.9409851],[-1.0072071,46.9422397],[-1.0078335,46.9439984],[-1.0050914,46.9443465],[-0.9987286,46.9453464],[-0.9979986,46.9448252],[-0.9960562,46.941733],[-0.9986611,46.9394277],[-0.9989031,46.9377621],[-0.9992351,46.9377581],[-0.9995251,46.9374601],[-0.9995001,46.9371581],[-1.0000951,46.9368081],[-1.0006721,46.9361901],[-1.0025501,46.9355831],[-1.0043251,46.9349731],[-1.005738,46.9348471],[-1.0059372,46.9349131],[-1.0076968,46.935001],[-1.0092282,46.9348025],[-1.0098494,46.9348411],[-1.0114305,46.9346493],[-1.0112251,46.9341131],[-1.0114461,46.9338921],[-1.0123921,46.9341451],[-1.0125936,46.9339078],[-1.0130011,46.9338111],[-1.0135627,46.9338501],[-1.0139213,46.933597],[-1.0133566,46.9331108],[-1.012185,46.932579],[-1.0107351,46.9322531],[-1.0098601,46.9315224],[-1.0080898,46.9314125],[-1.0074246,46.9312733],[-1.0063731,46.9315444],[-1.0056865,46.9311634],[-1.005429,46.9305846],[-1.0043495,46.930488],[-1.0051218,46.9282607],[-1.0049891,46.9274194],[-1.0045719,46.9267726],[-1.0041428,46.9245012],[-1.0040269,46.9208722],[-1.0078034,46.9199635],[-1.0123524,46.9178237],[-1.0146699,46.9179116],[-1.0138545,46.9167391],[-1.0145808,46.9165084],[-1.0148844,46.9162408],[-1.016558,46.9159476],[-1.0181105,46.916098],[-1.0199055,46.9159183],[-1.019795,46.9169848],[-1.0202489,46.9170322],[-1.0219515,46.9164938],[-1.0227466,46.914535],[-1.0233141,46.9138262],[-1.0235142,46.9136044],[-1.0249266,46.9134265],[-1.0247978,46.9137344],[-1.0250232,46.9138883],[-1.0254416,46.913815],[-1.0257366,46.9132928],[-1.0259699,46.9131398],[-1.0263816,46.9132062],[-1.0270703,46.9129536],[-1.0278652,46.9130874],[-1.0285743,46.9128402],[-1.0293254,46.9120816],[-1.0299262,46.9119516],[-1.0309562,46.9121431],[-1.0319218,46.912166],[-1.0325387,46.9120048],[-1.0327667,46.9121257],[-1.0327104,46.9123199],[-1.0337806,46.9123822],[-1.0360471,46.9121403],[-1.038048,46.9117739],[-1.0387829,46.911827],[-1.0392469,46.9120038],[-1.0392388,46.9122136],[-1.0395929,46.9126277],[-1.0393031,46.9133385],[-1.0390027,46.9140128],[-1.0408052,46.9139835],[-1.0406636,46.9146816],[-1.0396073,46.9163196],[-1.0391744,46.9166512],[-1.0380158,46.9165485],[-1.0372218,46.9166365],[-1.0368249,46.9168343],[-1.0367927,46.9172667],[-1.0377368,46.9173619],[-1.0382625,46.9171055],[-1.0382357,46.9174169],[-1.0374793,46.9177796],[-1.0362455,46.9188681],[-1.0328391,46.9208522],[-1.033617,46.9215463],[-1.0340032,46.9216929],[-1.03484,46.9222498],[-1.0352263,46.9233049],[-1.0358274,46.9235175],[-1.0381231,46.9232463],[-1.0388312,46.9225429],[-1.0393461,46.9222498],[-1.0412773,46.9199342],[-1.0440669,46.9186591],[-1.0447106,46.9182341],[-1.0447857,46.917897],[-1.0451666,46.9177064],[-1.0468376,46.9195457],[-1.0468993,46.9197583],[-1.0460195,46.9200514],[-1.0463306,46.9208574],[-1.0458424,46.9215535],[-1.0458264,46.9226014],[-1.0474786,46.9233342],[-1.0485516,46.9241623],[-1.0470709,46.9262359],[-1.04956,46.9282728],[-1.0500106,46.928859],[-1.0499677,46.9293132],[-1.0503325,46.9297675],[-1.0503111,46.9300019],[-1.0520276,46.9314379],[-1.0525211,46.9311448],[-1.0547527,46.9307492],[-1.0551174,46.9313353],[-1.0556969,46.9316283],[-1.0564803,46.9320679],[-1.0569577,46.9329764],[-1.0576256,46.9328738],[-1.0586366,46.9339581],[-1.0587654,46.9346321],[-1.0595807,46.9351156],[-1.0593447,46.9363024],[-1.0594735,46.9365808],[-1.0597739,46.9369837],[-1.0604082,46.9371943],[-1.0617983,46.9376146],[-1.0632872,46.9381911],[-1.0652171,46.938461],[-1.0652246,46.9387076],[-1.066236,46.9391014],[-1.0667737,46.9392464],[-1.0685775,46.9397631],[-1.0689597,46.9391114],[-1.0705972,46.9382748],[-1.0713396,46.9378408],[-1.0729296,46.9386212],[-1.0732835,46.9389708],[-1.0729886,46.9390944],[-1.073002,46.9397715],[-1.0724294,46.9400295],[-1.0727653,46.940598],[-1.073391,46.9410844],[-1.0742081,46.9411299],[-1.0752604,46.9409255],[-1.075272,46.9425524],[-1.0747552,46.9426213],[-1.0748723,46.9430367],[-1.074752,46.9432346],[-1.0739158,46.9432188],[-1.0735514,46.9431084],[-1.0731439,46.9431337],[-1.0725848,46.943762],[-1.0705578,46.9432408],[-1.069909,46.9445989],[-1.0713631,46.944917]]}}]}