{"type":"FeatureCollection","features":[{"type":"Feature","properties":{"distance":42,"name":"GaubreTrail 42 km"},"geometry":{"type":"LineString","coordinates":[[-1.0715847,46.9452378],[-1.0721506,46.9456225],[-1.0732449,46.9459814],[-1.0739188,46.9460869],[-1.0742939,46.9454795],[-1.072451,46.9449047],[-1.0728802,46.9439378],[-1.0747201,46.9446959],[-1.0761161,46.9447525],[-1.0774829,46.9449193],[-1.078073,46.9446081],[-1.0784994,46.9432308],[-1.0779979,46.9431978],[-1.0781601,46.9427199],[-1.0778389,46.942697],[-1.0778071,46.9424438],[-1.0772815,46.9425333],[-1.0769812,46.9427282],[-1.0758869,46.9428037],[-1.0758065,46.9425008],[-1.0762732,46.942447],[-1.0772817,46.9423152],[-1.0778798,46.9421359],[-1.0794677,46.9416232],[-1.0803045,46.9416964],[-1.0805191,46.9418136],[-1.0812916,46.9414327],[-1.0848321,46.940246],[-1.0853713,46.9402422],[-1.0857468,46.9398906],[-1.0859479,46.9396014],[-1.0865487,46.9382682],[-1.0886515,46.9362463],[-1.0892524,46.9355284],[-1.0895957,46.9355577],[-1.0897244,46.9362317],[-1.0915269,46.9392205],[-1.0921921,46.9409786],[-1.0935224,46.9410958],[-1.0957031,46.9418171],[-1.096269,46.9419455],[-1.0978569,46.9425754],[-1.0976852,46.9431614],[-1.0995306,46.9435276],[-1.0983639,46.9474937],[-1.0983746,46.9492368],[-1.098321,46.9505405],[-1.0982566,46.9512802],[-1.0984792,46.9524631],[-1.0984792,46.9561248],[-1.0972132,46.9567692],[-1.0971702,46.9570768],[-1.0968269,46.9569303],[-1.0967625,46.9574136],[-1.0964192,46.9574283],[-1.0960679,46.9578784],[-1.0959284,46.958186],[-1.0953141,46.9593395],[-1.0942226,46.9601118],[-1.0937263,46.9608259],[-1.0934474,46.9613825],[-1.094083,46.9616422],[-1.0943621,46.9623525],[-1.0940481,46.9628543],[-1.0950808,46.9646663],[-1.0954643,46.9651899],[-1.0958319,46.9657059],[-1.0954322,46.9658928],[-1.0934581,46.9673572],[-1.0929565,46.9677194],[-1.0924416,46.9683637],[-1.0922163,46.9689201],[-1.0919319,46.9696522],[-1.0919614,46.9703404],[-1.0918045,46.9708749],[-1.0914256,46.9708346],[-1.0911504,46.9698773],[-1.0913346,46.9692669],[-1.0916476,46.9688323],[-1.0915081,46.9686053],[-1.090637,46.967982],[-1.089661,46.967554],[-1.089222,46.967258],[-1.08945,46.966829],[-1.0899091,46.9668515],[-1.089049,46.966502],[-1.088854,46.966232],[-1.088507,46.966493],[-1.088179,46.966775],[-1.087743,46.966477],[-1.087397,46.965794],[-1.088036,46.965414],[-1.087586,46.965194],[-1.086871,46.965534],[-1.086387,46.965566],[-1.086091,46.965003],[-1.0859585,46.964271],[-1.0853498,46.9636924],[-1.0840838,46.9638096],[-1.0834401,46.9635167],[-1.0834186,46.9631945],[-1.083886,46.96269],[-1.08373,46.961324],[-1.081355,46.960991],[-1.079491,46.961111],[-1.079172,46.960659],[-1.079111,46.960389],[-1.0785,46.960224],[-1.0783224,46.9599727],[-1.0768204,46.9597457],[-1.0761766,46.9596505],[-1.075844,46.9597677],[-1.0759191,46.9598556],[-1.0749186,46.9599619],[-1.0736312,46.9594054],[-1.0723008,46.9594347],[-1.071928,46.9592844],[-1.071798,46.958754],[-1.0718716,46.9579409],[-1.0711636,46.9577066],[-1.0697071,46.9584715],[-1.0686772,46.9589328],[-1.06754,46.9589731],[-1.0669929,46.9587589],[-1.0667646,46.9577062],[-1.0674016,46.9552852],[-1.0676316,46.9549832],[-1.0669767,46.9533412],[-1.0668856,46.9526992],[-1.067128,46.9504059],[-1.0659462,46.9497806],[-1.0635457,46.9482982],[-1.0615957,46.9477242],[-1.0602187,46.9477252],[-1.0584627,46.9474602],[-1.0561627,46.9458572],[-1.0555985,46.9463991],[-1.0554236,46.9470656],[-1.0540273,46.9475014],[-1.0537582,46.9478218],[-1.0504479,46.9481286],[-1.050638,46.9495856],[-1.0510978,46.9523062],[-1.0510488,46.953315],[-1.0535563,46.9539513],[-1.0546813,46.9546941],[-1.0522873,46.9566673],[-1.050786,46.956587],[-1.050423,46.956249],[-1.049785,46.955981],[-1.047894,46.95608],[-1.047607,46.954623],[-1.047354,46.954404],[-1.047333,46.953554],[-1.046728,46.953986],[-1.046243,46.954075],[-1.046405,46.953679],[-1.045049,46.953616],[-1.044944,46.95392],[-1.04534,46.95408],[-1.044679,46.954204],[-1.044127,46.954116],[-1.0438587,46.9537949],[-1.043915,46.953417],[-1.043431,46.953376],[-1.0427168,46.9533809],[-1.0426816,46.9537496],[-1.042503,46.9539485],[-1.0417022,46.9538692],[-1.0411443,46.9540157],[-1.0402001,46.9537228],[-1.0398743,46.9531675],[-1.0393847,46.9526389],[-1.0381402,46.9523166],[-1.0377929,46.9520031],[-1.0378251,46.9518419],[-1.0371921,46.9511755],[-1.0389409,46.9500916],[-1.0386941,46.9499451],[-1.038772,46.949864],[-1.0381402,46.9497094],[-1.037351,46.949029],[-1.037117,46.9485682],[-1.0364947,46.9480115],[-1.0363595,46.948069],[-1.0364303,46.9482899],[-1.0361943,46.9483558],[-1.036445,46.9488012],[-1.0358013,46.9489184],[-1.0357369,46.9483032],[-1.0351576,46.9483325],[-1.0351576,46.9487866],[-1.0353721,46.9487719],[-1.0353292,46.9480102],[-1.035179,46.947688],[-1.0357544,46.947616],[-1.0361299,46.9475135],[-1.0360012,46.947345],[-1.0355438,46.9471899],[-1.035216,46.947088],[-1.0346922,46.9468177],[-1.0344066,46.946604],[-1.03438,46.946099],[-1.0350288,46.9454906],[-1.0355223,46.9446849],[-1.0346426,46.9434397],[-1.0342993,46.9431614],[-1.0330118,46.9428831],[-1.032743,46.942574],[-1.032656,46.941918],[-1.0324607,46.9415439],[-1.032757,46.941358],[-1.032395,46.941071],[-1.031696,46.940699],[-1.030874,46.940248],[-1.029662,46.941105],[-1.0279653,46.9418149],[-1.0274717,46.9419248],[-1.027343,46.9421739],[-1.027495,46.942959],[-1.027295,46.943688],[-1.026488,46.944397],[-1.02605,46.944657],[-1.0230125,46.9445384],[-1.0216392,46.9452709],[-1.0204591,46.9456225],[-1.019708,46.9460912],[-1.017569,46.9459314],[-1.01656,46.947151],[-1.0157598,46.9476733],[-1.014722,46.948734],[-1.014202,46.949116],[-1.0127772,46.9502807],[-1.0119833,46.9486694],[-1.012187,46.947899],[-1.0122837,46.9467651],[-1.012802,46.94661],[-1.013192,46.946503],[-1.013543,46.946137],[-1.01363,46.94587],[-1.01386,46.94566],[-1.014152,46.945416],[-1.014145,46.945011],[-1.0141358,46.9445032],[-1.0141036,46.9439318],[-1.0141143,46.9434411],[-1.0135712,46.9419016],[-1.0129704,46.941257],[-1.0133138,46.9403487],[-1.0127345,46.9401801],[-1.011902,46.940655],[-1.011157,46.941162],[-1.0106585,46.9411635],[-1.0095829,46.9407121],[-1.00865,46.94112],[-1.00795,46.941196],[-1.00733,46.941029],[-1.007202,46.942269],[-1.007707,46.943791],[-1.0078284,46.9440277],[-1.0082871,46.9445017],[-1.0069916,46.9470324],[-1.0031156,46.9461039],[-1.0016,46.9461863],[-1.0012509,46.9456715],[-1.00275,46.9453262],[-1.0041219,46.9451096],[-1.0050653,46.9447669],[-1.0050864,46.9443758],[-1.001288,46.944893],[-0.9992334,46.9452649],[-0.9987235,46.9453757],[-0.9979935,46.9448545],[-0.9971132,46.9434837],[-0.9962978,46.9424436],[-0.9960511,46.9417623],[-0.996203,46.941368],[-0.996793,46.940873],[-0.997177,46.940328],[-0.998656,46.939457],[-0.998583,46.9391399],[-0.998837,46.938519],[-0.9989299,46.937861],[-0.9992136,46.9378643],[-0.99952,46.937504],[-0.999495,46.937202],[-1.00009,46.936852],[-1.000667,46.936234],[-1.00227,46.935669],[-1.002545,46.935627],[-1.00432,46.935017],[-1.00504,46.934986],[-1.005733,46.934891],[-1.0059322,46.934957],[-1.0076917,46.9350449],[-1.0090503,46.9348777],[-1.0098443,46.934885],[-1.0110459,46.9347312],[-1.0114254,46.9346932],[-1.01122,46.934157],[-1.011441,46.933936],[-1.012387,46.934189],[-1.0125936,46.9339078],[-1.0130011,46.9338111],[-1.0135174,46.933835],[-1.0139162,46.9336409],[-1.0133566,46.9331108],[-1.012185,46.932579],[-1.01073,46.932297],[-1.009855,46.9315663],[-1.0080847,46.9314564],[-1.0074195,46.9313172],[-1.0063681,46.9315883],[-1.0056815,46.9312073],[-1.005424,46.9306285],[-1.0043444,46.9305319],[-1.0051168,46.9283046],[-1.0049841,46.9274633],[-1.0045871,46.9267086],[-1.0043014,46.9256375],[-1.0038723,46.9221497],[-1.0040218,46.9209161],[-1.0077983,46.9200074],[-1.0089001,46.9194104],[-1.0111532,46.9184431],[-1.0117433,46.9181206],[-1.0123473,46.9178676],[-1.0146648,46.9179555],[-1.0139856,46.9171093],[-1.0138494,46.916783],[-1.0145757,46.9165523],[-1.0148793,46.9162847],[-1.016553,46.9159915],[-1.0181055,46.9161419],[-1.0199004,46.9159622],[-1.0197899,46.9170287],[-1.0202438,46.9170761],[-1.0212383,46.9167942],[-1.0219464,46.9165377],[-1.0225612,46.9149362],[-1.023056,46.914202],[-1.023309,46.9138701],[-1.0235142,46.9136044],[-1.0249266,46.9134265],[-1.0249105,46.9135731],[-1.0247978,46.9137344],[-1.0250232,46.9138883],[-1.0254416,46.913815],[-1.0257366,46.9132928],[-1.0259699,46.9131398],[-1.0263816,46.9132062],[-1.0270703,46.9129536],[-1.0278652,46.9130874],[-1.0285743,46.9128402],[-1.0293254,46.9120816],[-1.0299262,46.9119516],[-1.0309562,46.9121431],[-1.0319218,46.912166],[-1.0325387,46.9120048],[-1.0327667,46.9121257],[-1.0327104,46.9123199],[-1.0337806,46.9123822],[-1.0360471,46.9121403],[-1.038048,46.9117739],[-1.0387829,46.911827],[-1.0392469,46.9120038],[-1.0392388,46.9122136],[-1.0395929,46.9126277],[-1.0394534,46.9129794],[-1.0390027,46.9140128],[-1.0408002,46.9140274],[-1.0405502,46.9148888],[-1.0396023,46.9163489],[-1.0390193,46.9166658],[-1.0380107,46.9165778],[-1.0372167,46.9166658],[-1.0368249,46.9168343],[-1.0367927,46.9172667],[-1.0377368,46.9173619],[-1.0382625,46.9171055],[-1.0382357,46.9174169],[-1.0374793,46.9177796],[-1.0362455,46.9188681],[-1.032834,46.9208815],[-1.0336119,46.9215756],[-1.0339981,46.9217222],[-1.0348349,46.9222791],[-1.0352212,46.9233342],[-1.0358223,46.9235468],[-1.038118,46.9232756],[-1.0388261,46.9225722],[-1.0393411,46.9222791],[-1.0412723,46.9199635],[-1.0440618,46.9186884],[-1.0447055,46.9182634],[-1.0447806,46.9179263],[-1.0451615,46.9177357],[-1.0468325,46.919575],[-1.0468942,46.9197876],[-1.0460144,46.9200807],[-1.0463255,46.9208867],[-1.0458588,46.9214803],[-1.0458213,46.9226307],[-1.0474735,46.9233635],[-1.0485465,46.9241916],[-1.0470658,46.9262798],[-1.0495549,46.9283167],[-1.0500055,46.9289029],[-1.0499626,46.9293571],[-1.0503274,46.9298114],[-1.050306,46.9300458],[-1.0517865,46.9311741],[-1.051865,46.9313573],[-1.0520628,46.9315184],[-1.0525161,46.9311741],[-1.0545476,46.9307966],[-1.0547252,46.9313517],[-1.0550262,46.931317],[-1.0554396,46.931502],[-1.055429,46.9316146],[-1.0564752,46.9320972],[-1.0569526,46.9330057],[-1.0576205,46.9329031],[-1.0586315,46.9339874],[-1.0587603,46.9346614],[-1.0595756,46.9351449],[-1.0593396,46.9363317],[-1.0597688,46.937013],[-1.0617932,46.9376439],[-1.0632822,46.9382204],[-1.0652121,46.9384903],[-1.0652196,46.9387369],[-1.066231,46.9391307],[-1.0667687,46.9392757],[-1.0685724,46.9397924],[-1.0689546,46.9391407],[-1.0713345,46.9378701],[-1.0729245,46.9386505],[-1.0732785,46.9390001],[-1.0729835,46.9391237],[-1.0729969,46.9398008],[-1.0724243,46.9400588],[-1.0727602,46.9406273],[-1.073386,46.9411137],[-1.0742031,46.9411592],[-1.0752554,46.9409548],[-1.0752701,46.9426192],[-1.0747502,46.9426506],[-1.0746397,46.9432126],[-1.0730744,46.94313],[-1.0725582,46.9438352],[-1.0705527,46.9432701],[-1.0699183,46.9444627],[-1.0706285,46.944657],[-1.071358,46.9449609]]}}]}