{"type":"FeatureCollection","features":[{"type":"Feature","properties":{"distance":8,"name":"GaubreTrail 8 km"},"geometry":{"type":"LineString","coordinates":[[-1.0716516,46.9453032],[-1.0725176,46.9449702],[-1.0743097,46.9455192],[-1.0739346,46.9461272],[-1.0733436,46.9461202],[-1.0719426,46.9470992],[-1.0731977,46.9481642],[-1.0722386,46.9485152],[-1.0721247,46.9484342],[-1.0719056,46.9484052],[-1.0715067,46.9483982],[-1.0709847,46.9486192],[-1.0706777,46.9490352],[-1.0703016,46.9495322],[-1.0705526,46.9500732],[-1.0713206,46.9510402],[-1.0715527,46.9516492],[-1.0719586,46.9514182],[-1.0721087,46.9517942],[-1.0718826,46.9527652],[-1.0720647,46.9537952],[-1.0723937,46.9554042],[-1.0728646,46.9569832],[-1.0734447,46.9578292],[-1.0734006,46.9583212],[-1.0736976,46.9594702],[-1.0723677,46.9595002],[-1.0719946,46.9593492],[-1.0718647,46.9588192],[-1.0719386,46.9580062],[-1.0711636,46.9577066],[-1.0697737,46.9585372],[-1.0687437,46.9589982],[-1.0676067,46.9590382],[-1.0670596,46.9588242],[-1.0667646,46.9577062],[-1.0671106,46.9566202],[-1.0672137,46.9559862],[-1.0674016,46.9552852],[-1.0676316,46.9549832],[-1.0672207,46.9540592],[-1.0669767,46.9533412],[-1.0668856,46.9526992],[-1.0670816,46.9511092],[-1.0671386,46.9506162],[-1.0669341,46.9503766],[-1.0666504,46.9503072],[-1.0664199,46.9500983],[-1.066133,46.9497077],[-1.0650664,46.9493119],[-1.0635457,46.9482982],[-1.0633726,46.9483332],[-1.0615957,46.9477242],[-1.0602187,46.9477252],[-1.0584627,46.9474602],[-1.0573856,46.9467582],[-1.0561627,46.9458572],[-1.0554476,46.9451446],[-1.0556905,46.9447079],[-1.0564967,46.9444267],[-1.0562348,46.9440743],[-1.0576466,46.9437657],[-1.0582905,46.9443083],[-1.0590007,46.9452094],[-1.0602101,46.9458036],[-1.06069,46.9456067],[-1.0596327,46.9449785],[-1.0599641,46.9448356],[-1.0611656,46.9454952],[-1.0618415,46.9455738],[-1.0623873,46.9455148],[-1.0641917,46.9464912],[-1.0649283,46.9468062],[-1.0641589,46.9480325],[-1.064736,46.9475604],[-1.0644927,46.9481597],[-1.0651204,46.9476507],[-1.0649487,46.9482512],[-1.0670355,46.9484948],[-1.0693368,46.948167],[-1.0693529,46.9479272],[-1.0685456,46.9474996],[-1.0679702,46.9469783],[-1.0681245,46.9467791],[-1.068339,46.9462225],[-1.0689828,46.9454534],[-1.0699846,46.9445282],[-1.0706947,46.9447222],[-1.0714246,46.9450262]]}}]}