{"type":"FeatureCollection","attribution":"© OpenStreetMap contributors · ODbL 1.0","source":"https://api.openstreetmap.org/api/0.6/map.json?bbox=-1.063,46.9400,-1.0575,46.9435","retrievedAt":"2026-09-09","features":[{"type":"Feature","id":73079902,"properties":{"osmId":73079902,"name":"Rue Jacques Forestier","kind":"road","height":6,"heightEstimated":true,"highway":"secondary"},"geometry":{"type":"LineString","coordinates":[[-1.0542731,46.9438719],[-1.0559216,46.9434392],[-1.0560514,46.9434076],[-1.0562134,46.9433747],[-1.0563749,46.9433464],[-1.0566186,46.9433128],[-1.0568203,46.9432949],[-1.0569793,46.9432857],[-1.0571874,46.94328],[-1.0573652,46.9432811],[-1.0576418,46.9432981],[-1.0578373,46.9433187],[-1.058051,46.943344],[-1.0583429,46.9433901],[-1.0588282,46.9434611],[-1.059005,46.9434848],[-1.0597093,46.9435826],[-1.0597912,46.9435943],[-1.0601201,46.9436415],[-1.060216,46.9436415],[-1.0603144,46.9436502],[-1.0605047,46.9436804],[-1.0606715,46.9437098],[-1.0608185,46.9437307],[-1.0610628,46.9437573],[-1.0611638,46.9437527],[-1.0612829,46.9437412],[-1.0614268,46.9437116],[-1.0615761,46.9436664],[-1.0617161,46.9436172],[-1.0621076,46.9434697],[-1.0623399,46.9433826],[-1.062421,46.943355],[-1.0630622,46.943113],[-1.0636699,46.9428716],[-1.0636874,46.9428658],[-1.0639836,46.9427535],[-1.0640391,46.9427259],[-1.0642998,46.9425792],[-1.0644176,46.9425027]]}},{"type":"Feature","id":76927431,"properties":{"osmId":76927431,"name":"","kind":"building","height":6,"heightEstimated":true,"highway":""},"geometry":{"type":"Polygon","coordinates":[[[-1.0613143,46.941053],[-1.0613999,46.940963],[-1.0613075,46.9409217],[-1.0612212,46.9410136],[-1.0613143,46.941053]]]}},{"type":"Feature","id":76927453,"properties":{"osmId":76927453,"name":"","kind":"building","height":6,"heightEstimated":true,"highway":""},"geometry":{"type":"Polygon","coordinates":[[[-1.0606144,46.9410922],[-1.0606314,46.9410777],[-1.0605963,46.9410597],[-1.0605802,46.9410741],[-1.0606144,46.9410922]]]}},{"type":"Feature","id":76927460,"properties":{"osmId":76927460,"name":"","kind":"building","height":6,"heightEstimated":true,"highway":""},"geometry":{"type":"Polygon","coordinates":[[[-1.0630003,46.9415463],[-1.062901,46.9416016],[-1.0629987,46.9416808],[-1.0630986,46.9416238],[-1.0630003,46.9415463]]]}},{"type":"Feature","id":76927464,"properties":{"osmId":76927464,"name":"","kind":"building","height":6,"heightEstimated":true,"highway":""},"geometry":{"type":"Polygon","coordinates":[[[-1.0622988,46.942464],[-1.0623255,46.9424755],[-1.0623498,46.9424857],[-1.0623649,46.9424674],[-1.0623163,46.9424463],[-1.0622988,46.942464]]]}},{"type":"Feature","id":76927482,"properties":{"osmId":76927482,"name":"","kind":"building","height":6,"heightEstimated":true,"highway":""},"geometry":{"type":"Polygon","coordinates":[[[-1.0620735,46.9406797],[-1.062127,46.9407032],[-1.0621578,46.9407174],[-1.0622764,46.940649],[-1.0623373,46.940614],[-1.0623118,46.9405885],[-1.062341,46.9405704],[-1.0623123,46.9405436],[-1.0622417,46.9405839],[-1.0622214,46.9405953],[-1.0621576,46.9406314],[-1.0621321,46.9406463],[-1.0620735,46.9406797]]]}},{"type":"Feature","id":76927489,"properties":{"osmId":76927489,"name":"","kind":"building","height":6,"heightEstimated":true,"highway":""},"geometry":{"type":"Polygon","coordinates":[[[-1.0618588,46.9400589],[-1.0616998,46.940091],[-1.0617217,46.940143],[-1.0617334,46.9401418],[-1.0617654,46.9402124],[-1.0617548,46.940217],[-1.0617504,46.9402208],[-1.0617486,46.940228],[-1.0617507,46.9402354],[-1.061759,46.9402415],[-1.0617679,46.9402451],[-1.0617796,46.9402447],[-1.0617881,46.9402426],[-1.061794,46.9402385],[-1.0617966,46.9402316],[-1.0617968,46.940223],[-1.0618869,46.9402031],[-1.0618914,46.9402108],[-1.0619066,46.9402152],[-1.0619281,46.9402091],[-1.061933,46.9402007],[-1.0619297,46.940188],[-1.0619165,46.9401796],[-1.0619033,46.9401811],[-1.0618716,46.9401152],[-1.0618823,46.9401116],[-1.0618588,46.9400589]]]}},{"type":"Feature","id":76927578,"properties":{"osmId":76927578,"name":"","kind":"building","height":6,"heightEstimated":true,"highway":""},"geometry":{"type":"Polygon","coordinates":[[[-1.0630295,46.9432559],[-1.063191,46.9432155],[-1.0631526,46.9431741],[-1.063115,46.943133],[-1.0630899,46.9431428],[-1.0629742,46.9431876],[-1.0630295,46.9432559]]]}},{"type":"Feature","id":76927615,"properties":{"osmId":76927615,"name":"","kind":"building","height":6,"heightEstimated":true,"highway":""},"geometry":{"type":"Polygon","coordinates":[[[-1.0584038,46.9432515],[-1.0584363,46.9431837],[-1.0582864,46.9431498],[-1.0582547,46.9432176],[-1.0584038,46.9432515]]]}},{"type":"Feature","id":76927645,"properties":{"osmId":76927645,"name":"","kind":"building","height":6,"heightEstimated":true,"highway":""},"geometry":{"type":"Polygon","coordinates":[[[-1.0592296,46.9433645],[-1.0592585,46.9432904],[-1.0591199,46.943261],[-1.0590886,46.9433338],[-1.0592296,46.9433645]]]}},{"type":"Feature","id":76927675,"properties":{"osmId":76927675,"name":"","kind":"building","height":6,"heightEstimated":true,"highway":""},"geometry":{"type":"Polygon","coordinates":[[[-1.0626352,46.9434707],[-1.0626136,46.943444],[-1.062573,46.9433941],[-1.0625144,46.9434172],[-1.0623729,46.9434729],[-1.0624329,46.9435514],[-1.0625715,46.9434983],[-1.0626181,46.9435548],[-1.0626957,46.9435445],[-1.0626352,46.9434707]]]}},{"type":"Feature","id":76927693,"properties":{"osmId":76927693,"name":"","kind":"building","height":6,"heightEstimated":true,"highway":""},"geometry":{"type":"Polygon","coordinates":[[[-1.0598492,46.9427101],[-1.0597549,46.9426953],[-1.0597442,46.9427203],[-1.0598378,46.9427358],[-1.0598492,46.9427101]]]}},{"type":"Feature","id":76927700,"properties":{"osmId":76927700,"name":"","kind":"building","height":6,"heightEstimated":true,"highway":""},"geometry":{"type":"Polygon","coordinates":[[[-1.0624039,46.9414109],[-1.0624981,46.9413095],[-1.062649,46.9411401],[-1.0625494,46.941098],[-1.0624054,46.9412547],[-1.0623739,46.9412419],[-1.0623405,46.9412773],[-1.0623601,46.9412873],[-1.062293,46.9413642],[-1.0624039,46.9414109]]]}},{"type":"Feature","id":76927704,"properties":{"osmId":76927704,"name":"","kind":"building","height":6,"heightEstimated":true,"highway":""},"geometry":{"type":"Polygon","coordinates":[[[-1.0616855,46.9426228],[-1.0617239,46.9426424],[-1.0617327,46.942635],[-1.0616943,46.9426142],[-1.0616855,46.9426228]]]}},{"type":"Feature","id":76927729,"properties":{"osmId":76927729,"name":"","kind":"building","height":6,"heightEstimated":true,"highway":""},"geometry":{"type":"Polygon","coordinates":[[[-1.0607992,46.9404209],[-1.0609001,46.9403523],[-1.0608101,46.9402906],[-1.0607092,46.9403592],[-1.0607992,46.9404209]]]}},{"type":"Feature","id":76927732,"properties":{"osmId":76927732,"name":"","kind":"building","height":6,"heightEstimated":true,"highway":""},"geometry":{"type":"Polygon","coordinates":[[[-1.060163,46.9434287],[-1.0602306,46.9432762],[-1.0601755,46.9432624],[-1.060146,46.9433277],[-1.0600527,46.9433067],[-1.0600139,46.9433941],[-1.060163,46.9434287]]]}},{"type":"Feature","id":76927750,"properties":{"osmId":76927750,"name":"","kind":"building","height":6,"heightEstimated":true,"highway":""},"geometry":{"type":"Polygon","coordinates":[[[-1.0616342,46.940828],[-1.0617225,46.9407318],[-1.0616227,46.9406872],[-1.0615353,46.9407852],[-1.0616342,46.940828]]]}},{"type":"Feature","id":76927798,"properties":{"osmId":76927798,"name":"","kind":"building","height":6,"heightEstimated":true,"highway":""},"geometry":{"type":"Polygon","coordinates":[[[-1.0597097,46.9430204],[-1.0596747,46.9430134],[-1.0596559,46.9430548],[-1.0596916,46.9430603],[-1.0597097,46.9430204]]]}},{"type":"Feature","id":76927822,"properties":{"osmId":76927822,"name":"","kind":"building","height":6,"heightEstimated":true,"highway":""},"geometry":{"type":"Polygon","coordinates":[[[-1.0626298,46.9427372],[-1.0626407,46.9427258],[-1.0625763,46.9426935],[-1.0625639,46.9427053],[-1.0626298,46.9427372]]]}},{"type":"Feature","id":76927852,"properties":{"osmId":76927852,"name":"","kind":"building","height":6,"heightEstimated":true,"highway":""},"geometry":{"type":"Polygon","coordinates":[[[-1.0630099,46.9430383],[-1.0629175,46.9429774],[-1.0628895,46.9429591],[-1.0627867,46.9429981],[-1.0628051,46.9430234],[-1.0625721,46.9431131],[-1.0623556,46.9431932],[-1.0623351,46.9431711],[-1.0622757,46.9431931],[-1.0622924,46.9432172],[-1.0622742,46.9432253],[-1.0623135,46.9432474],[-1.0623731,46.9432788],[-1.0625948,46.9431954],[-1.0626004,46.9431973],[-1.0627315,46.943148],[-1.0627287,46.9431432],[-1.0628628,46.943092],[-1.0630099,46.9430383]]]}},{"type":"Feature","id":76927950,"properties":{"osmId":76927950,"name":"","kind":"building","height":6,"heightEstimated":true,"highway":""},"geometry":{"type":"Polygon","coordinates":[[[-1.062573,46.9433941],[-1.062541,46.9433542],[-1.0624816,46.9433774],[-1.0625144,46.9434172],[-1.062573,46.9433941]]]}},{"type":"Feature","id":76927967,"properties":{"osmId":76927967,"name":"","kind":"building","height":6,"heightEstimated":true,"highway":""},"geometry":{"type":"Polygon","coordinates":[[[-1.060485,46.9412858],[-1.0606651,46.9411396],[-1.0606096,46.9411102],[-1.0604311,46.9412574],[-1.060485,46.9412858]]]}},{"type":"Feature","id":76927968,"properties":{"osmId":76927968,"name":"","kind":"building","height":6,"heightEstimated":true,"highway":""},"geometry":{"type":"Polygon","coordinates":[[[-1.0608296,46.9400334],[-1.0609017,46.939992],[-1.0609265,46.9399779],[-1.0608888,46.9399457],[-1.0608489,46.9399671],[-1.0608531,46.9399709],[-1.0607952,46.9400029],[-1.0608296,46.9400334]]]}},{"type":"Feature","id":76927974,"properties":{"osmId":76927974,"name":"","kind":"building","height":6,"heightEstimated":true,"highway":""},"geometry":{"type":"Polygon","coordinates":[[[-1.0629866,46.9411805],[-1.0630224,46.9411974],[-1.0630319,46.9411882],[-1.0629939,46.9411724],[-1.0629866,46.9411805]]]}},{"type":"Feature","id":76927996,"properties":{"osmId":76927996,"name":"","kind":"building","height":6,"heightEstimated":true,"highway":""},"geometry":{"type":"Polygon","coordinates":[[[-1.0621321,46.9406463],[-1.0621576,46.9406314],[-1.0621291,46.9406075],[-1.0621058,46.9406208],[-1.0621321,46.9406463]]]}},{"type":"Feature","id":76928003,"properties":{"osmId":76928003,"name":"","kind":"building","height":6,"heightEstimated":true,"highway":""},"geometry":{"type":"Polygon","coordinates":[[[-1.062803,46.9400813],[-1.0627866,46.9400519],[-1.062713,46.9400714],[-1.0627293,46.9401007],[-1.062803,46.9400813]]]}},{"type":"Feature","id":76928099,"properties":{"osmId":76928099,"name":"","kind":"building","height":6,"heightEstimated":true,"highway":""},"geometry":{"type":"Polygon","coordinates":[[[-1.0625452,46.9425415],[-1.0626017,46.94248],[-1.0624671,46.9424209],[-1.0624084,46.9424829],[-1.0625452,46.9425415]]]}},{"type":"Feature","id":76928136,"properties":{"osmId":76928136,"name":"","kind":"building","height":6,"heightEstimated":true,"highway":""},"geometry":{"type":"Polygon","coordinates":[[[-1.0583114,46.9430558],[-1.0582469,46.9430417],[-1.0581934,46.943081],[-1.0582869,46.9431041],[-1.0583114,46.9430558]]]}},{"type":"Feature","id":76928166,"properties":{"osmId":76928166,"name":"","kind":"building","height":6,"heightEstimated":true,"highway":""},"geometry":{"type":"Polygon","coordinates":[[[-1.0584514,46.9422148],[-1.0584749,46.942194],[-1.0584912,46.942202],[-1.0585489,46.9421472],[-1.0585763,46.9421262],[-1.0585126,46.9420921],[-1.0585339,46.9420728],[-1.0584009,46.942003],[-1.0583796,46.9420223],[-1.0583544,46.9420096],[-1.0583764,46.9419899],[-1.0582956,46.9419471],[-1.0582735,46.9419668],[-1.0582703,46.9419652],[-1.0581838,46.9420446],[-1.0582924,46.9421017],[-1.0582821,46.942111],[-1.0583914,46.9421681],[-1.0583804,46.9421774],[-1.0584514,46.9422148]]]}},{"type":"Feature","id":76928185,"properties":{"osmId":76928185,"name":"","kind":"building","height":6,"heightEstimated":true,"highway":""},"geometry":{"type":"Polygon","coordinates":[[[-1.0626524,46.9424257],[-1.0627091,46.9424494],[-1.0627517,46.9424015],[-1.0628793,46.9422558],[-1.0629454,46.9421767],[-1.0628928,46.942155],[-1.0626524,46.9424257]]]}},{"type":"Feature","id":76928213,"properties":{"osmId":76928213,"name":"","kind":"building","height":6,"heightEstimated":true,"highway":""},"geometry":{"type":"Polygon","coordinates":[[[-1.0601724,46.942766],[-1.0600787,46.9427498],[-1.0600672,46.9427748],[-1.060161,46.9427918],[-1.0601724,46.942766]]]}},{"type":"Feature","id":76928220,"properties":{"osmId":76928220,"name":"","kind":"building","height":6,"heightEstimated":true,"highway":""},"geometry":{"type":"Polygon","coordinates":[[[-1.0625739,46.9415864],[-1.0626098,46.9415538],[-1.0626317,46.941563],[-1.0626728,46.9415259],[-1.0626288,46.9415042],[-1.0625496,46.9415759],[-1.0625739,46.9415864]]]}},{"type":"Feature","id":76928224,"properties":{"osmId":76928224,"name":"","kind":"building","height":6,"heightEstimated":true,"highway":""},"geometry":{"type":"Polygon","coordinates":[[[-1.0617683,46.9435179],[-1.0617828,46.9435031],[-1.0617536,46.9434895],[-1.0617502,46.9434857],[-1.0617361,46.9434759],[-1.0616905,46.9434533],[-1.0617019,46.9434382],[-1.0616358,46.9434035],[-1.061645,46.943391],[-1.0616351,46.9433846],[-1.0616482,46.9433706],[-1.0616326,46.9433612],[-1.0616164,46.9433749],[-1.0615087,46.9433188],[-1.0617349,46.9431082],[-1.0616631,46.9430712],[-1.0614835,46.9432338],[-1.0613843,46.9433218],[-1.0614675,46.9433649],[-1.0614619,46.9433733],[-1.0614576,46.9433788],[-1.0614573,46.9433849],[-1.0614608,46.9433904],[-1.0614651,46.9433949],[-1.0614708,46.9433972],[-1.0614779,46.9433984],[-1.0614833,46.9433975],[-1.061491,46.9433958],[-1.0615082,46.9433852],[-1.0616818,46.9434735],[-1.0617683,46.9435179]]]}},{"type":"Feature","id":76928246,"properties":{"osmId":76928246,"name":"Complexe sportif des Tourelles","kind":"building","height":8,"heightEstimated":true,"highway":""},"geometry":{"type":"Polygon","coordinates":[[[-1.0600739,46.9419553],[-1.0603564,46.942118],[-1.0607916,46.9417719],[-1.0607671,46.9417594],[-1.0608194,46.9417433],[-1.0608545,46.9417282],[-1.0608883,46.9417112],[-1.0609123,46.9417253],[-1.0612265,46.9414746],[-1.0609618,46.9413256],[-1.0610057,46.9412911],[-1.0609063,46.941232],[-1.0608404,46.9412582],[-1.0608256,46.9412488],[-1.0606154,46.9414211],[-1.0605146,46.9414967],[-1.0605219,46.9415015],[-1.0604865,46.9415277],[-1.0604501,46.9415747],[-1.0604452,46.9416194],[-1.0604612,46.9416535],[-1.0600739,46.9419553]]]}},{"type":"Feature","id":76928258,"properties":{"osmId":76928258,"name":"","kind":"building","height":6,"heightEstimated":true,"highway":""},"geometry":{"type":"Polygon","coordinates":[[[-1.062816,46.9412237],[-1.0627527,46.9411956],[-1.0626566,46.9412917],[-1.0627663,46.9413431],[-1.0628271,46.9413392],[-1.0629087,46.9412578],[-1.0628314,46.9412206],[-1.0628241,46.941228],[-1.062816,46.9412237]]]}},{"type":"Feature","id":76928259,"properties":{"osmId":76928259,"name":"","kind":"building","height":6,"heightEstimated":true,"highway":""},"geometry":{"type":"Polygon","coordinates":[[[-1.0627652,46.9402022],[-1.0626776,46.9402249],[-1.062726,46.9403152],[-1.0627889,46.9402973],[-1.0627731,46.9402657],[-1.0628146,46.9402543],[-1.0627965,46.9402225],[-1.0628217,46.9402141],[-1.062811,46.9401973],[-1.0627849,46.9402043],[-1.0627813,46.940198],[-1.0627652,46.9402022]]]}},{"type":"Feature","id":76928264,"properties":{"osmId":76928264,"name":"","kind":"building","height":6,"heightEstimated":true,"highway":""},"geometry":{"type":"Polygon","coordinates":[[[-1.0613783,46.9434287],[-1.0614195,46.9434137],[-1.0613776,46.943357],[-1.0613394,46.9433705],[-1.0613089,46.9433299],[-1.0612311,46.9433569],[-1.0612084,46.9433267],[-1.0611687,46.9433406],[-1.061139,46.9433006],[-1.0610612,46.9433276],[-1.0611145,46.9434006],[-1.0611893,46.9433741],[-1.0612084,46.9433994],[-1.0612504,46.9433847],[-1.0612844,46.9434295],[-1.0613576,46.9434037],[-1.0613783,46.9434287]]]}},{"type":"Feature","id":76928282,"properties":{"osmId":76928282,"name":"","kind":"building","height":6,"heightEstimated":true,"highway":""},"geometry":{"type":"Polygon","coordinates":[[[-1.0622162,46.9407431],[-1.0622613,46.9407601],[-1.0622786,46.9407395],[-1.0622681,46.9407349],[-1.0622381,46.9407224],[-1.0622162,46.9407431]]]}},{"type":"Feature","id":76928289,"properties":{"osmId":76928289,"name":"","kind":"building","height":6,"heightEstimated":true,"highway":""},"geometry":{"type":"Polygon","coordinates":[[[-1.0612778,46.9402094],[-1.0611861,46.9401467],[-1.0610905,46.9402089],[-1.0611807,46.9402724],[-1.0612778,46.9402094]]]}},{"type":"Feature","id":76928325,"properties":{"osmId":76928325,"name":"","kind":"building","height":6,"heightEstimated":true,"highway":""},"geometry":{"type":"Polygon","coordinates":[[[-1.0607506,46.9430865],[-1.0607859,46.9430139],[-1.0607377,46.9429885],[-1.0607232,46.9430243],[-1.0607406,46.9430269],[-1.0607163,46.9430777],[-1.0607306,46.9430811],[-1.0607205,46.9431022],[-1.0607404,46.9431065],[-1.0607506,46.9430865]]]}},{"type":"Feature","id":76928349,"properties":{"osmId":76928349,"name":"","kind":"building","height":6,"heightEstimated":true,"highway":""},"geometry":{"type":"Polygon","coordinates":[[[-1.0626,46.9427682],[-1.0626298,46.9427372],[-1.0625639,46.9427053],[-1.0625581,46.9427109],[-1.0625406,46.942729],[-1.0626,46.9427682]]]}},{"type":"Feature","id":76928381,"properties":{"osmId":76928381,"name":"","kind":"building","height":6,"heightEstimated":true,"highway":""},"geometry":{"type":"Polygon","coordinates":[[[-1.0630181,46.9433119],[-1.0629585,46.9432388],[-1.0628229,46.9432896],[-1.0628794,46.9433636],[-1.0630181,46.9433119]]]}},{"type":"Feature","id":76928418,"properties":{"osmId":76928418,"name":"","kind":"building","height":6,"heightEstimated":true,"highway":""},"geometry":{"type":"Polygon","coordinates":[[[-1.0587044,46.9433197],[-1.0587409,46.9432438],[-1.0585832,46.9432098],[-1.0585466,46.9432857],[-1.0587044,46.9433197]]]}},{"type":"Feature","id":76928473,"properties":{"osmId":76928473,"name":"","kind":"building","height":6,"heightEstimated":true,"highway":""},"geometry":{"type":"Polygon","coordinates":[[[-1.0620654,46.941214],[-1.0621073,46.9412296],[-1.0621181,46.9412167],[-1.0620761,46.9412007],[-1.0620654,46.941214]]]}},{"type":"Feature","id":76928506,"properties":{"osmId":76928506,"name":"","kind":"building","height":6,"heightEstimated":true,"highway":""},"geometry":{"type":"Polygon","coordinates":[[[-1.0629866,46.9411805],[-1.062975,46.9411927],[-1.06301,46.94121],[-1.0630224,46.9411974],[-1.0629866,46.9411805]]]}},{"type":"Feature","id":76928547,"properties":{"osmId":76928547,"name":"","kind":"building","height":6,"heightEstimated":true,"highway":""},"geometry":{"type":"Polygon","coordinates":[[[-1.0630353,46.9410165],[-1.0630067,46.9410311],[-1.0629813,46.9410173],[-1.0629426,46.9410547],[-1.0630958,46.9411217],[-1.0631165,46.9411053],[-1.0630353,46.9410165]]]}},{"type":"Feature","id":76928548,"properties":{"osmId":76928548,"name":"","kind":"building","height":6,"heightEstimated":true,"highway":""},"geometry":{"type":"Polygon","coordinates":[[[-1.0629181,46.9400894],[-1.0629354,46.9401216],[-1.0630149,46.9400956],[-1.0630012,46.9400693],[-1.0629181,46.9400894]]]}},{"type":"Feature","id":76928556,"properties":{"osmId":76928556,"name":"","kind":"building","height":6,"heightEstimated":true,"highway":""},"geometry":{"type":"Polygon","coordinates":[[[-1.0609197,46.9434774],[-1.0609538,46.9433999],[-1.0608106,46.9433711],[-1.0607757,46.9434483],[-1.0609197,46.9434774]]]}},{"type":"Feature","id":76928583,"properties":{"osmId":76928583,"name":"","kind":"building","height":6,"heightEstimated":true,"highway":""},"geometry":{"type":"Polygon","coordinates":[[[-1.0625876,46.9399677],[-1.0626515,46.9400878],[-1.062713,46.9400714],[-1.0627866,46.9400519],[-1.0628834,46.9400253],[-1.06285,46.9399663],[-1.0628213,46.9399088],[-1.0627283,46.9399328],[-1.0625876,46.9399677]]]}},{"type":"Feature","id":76928623,"properties":{"osmId":76928623,"name":"","kind":"building","height":6,"heightEstimated":true,"highway":""},"geometry":{"type":"Polygon","coordinates":[[[-1.0596513,46.9431494],[-1.0596836,46.9430784],[-1.0596478,46.9430711],[-1.0596133,46.9431436],[-1.0596513,46.9431494]]]}},{"type":"Feature","id":76928687,"properties":{"osmId":76928687,"name":"","kind":"building","height":6,"heightEstimated":true,"highway":""},"geometry":{"type":"Polygon","coordinates":[[[-1.0581982,46.9425744],[-1.0582298,46.9425372],[-1.0581657,46.9425081],[-1.058131,46.9425464],[-1.0581982,46.9425744]]]}},{"type":"Feature","id":76928717,"properties":{"osmId":76928717,"name":"","kind":"building","height":6,"heightEstimated":true,"highway":""},"geometry":{"type":"Polygon","coordinates":[[[-1.0585198,46.9425897],[-1.0584385,46.9425509],[-1.0583974,46.9425976],[-1.0584791,46.9426318],[-1.0585198,46.9425897]]]}},{"type":"Feature","id":76928736,"properties":{"osmId":76928736,"name":"","kind":"building","height":6,"heightEstimated":true,"highway":""},"geometry":{"type":"Polygon","coordinates":[[[-1.0630683,46.9420307],[-1.0630175,46.9420108],[-1.0629206,46.9421187],[-1.0629741,46.9421418],[-1.0630194,46.9420878],[-1.0630683,46.9420307]]]}},{"type":"Feature","id":76928764,"properties":{"osmId":76928764,"name":"","kind":"building","height":6,"heightEstimated":true,"highway":""},"geometry":{"type":"Polygon","coordinates":[[[-1.0604234,46.9429761],[-1.0604498,46.9429213],[-1.0604791,46.9428536],[-1.0603123,46.9428139],[-1.0602575,46.9429385],[-1.0604234,46.9429761]]]}},{"type":"Feature","id":76928775,"properties":{"osmId":76928775,"name":"","kind":"building","height":6,"heightEstimated":true,"highway":""},"geometry":{"type":"Polygon","coordinates":[[[-1.0620652,46.9425761],[-1.0621542,46.9426139],[-1.0621996,46.9426334],[-1.0622285,46.9426017],[-1.0622114,46.9425927],[-1.0622403,46.9425602],[-1.0622823,46.9425769],[-1.0623285,46.942525],[-1.0621988,46.9424679],[-1.0621146,46.9425569],[-1.0620913,46.9425484],[-1.0620652,46.9425761]]]}},{"type":"Feature","id":76928792,"properties":{"osmId":76928792,"name":"","kind":"building","height":6,"heightEstimated":true,"highway":""},"geometry":{"type":"Polygon","coordinates":[[[-1.0599829,46.9417539],[-1.059979,46.9417227],[-1.0601421,46.9415895],[-1.0601648,46.9415887],[-1.0601853,46.9415698],[-1.0601779,46.9415658],[-1.0600873,46.9415177],[-1.0598723,46.9417004],[-1.0599763,46.9417591],[-1.0599829,46.9417539]]]}},{"type":"Feature","id":76928799,"properties":{"osmId":76928799,"name":"","kind":"building","height":6,"heightEstimated":true,"highway":""},"geometry":{"type":"Polygon","coordinates":[[[-1.0628358,46.940969],[-1.0627903,46.9409888],[-1.0628511,46.9410148],[-1.0628741,46.9409876],[-1.0628358,46.940969]]]}},{"type":"Feature","id":76928800,"properties":{"osmId":76928800,"name":"","kind":"building","height":6,"heightEstimated":true,"highway":""},"geometry":{"type":"Polygon","coordinates":[[[-1.0610028,46.940344],[-1.0610646,46.9403946],[-1.0610716,46.9403933],[-1.0611503,46.9403562],[-1.061092,46.9403212],[-1.0610533,46.9402962],[-1.0610028,46.940344]]]}},{"type":"Feature","id":76928803,"properties":{"osmId":76928803,"name":"","kind":"building","height":6,"heightEstimated":true,"highway":""},"geometry":{"type":"Polygon","coordinates":[[[-1.0605989,46.9434011],[-1.0606125,46.9433732],[-1.0605846,46.943367],[-1.0605719,46.9433953],[-1.0605989,46.9434011]]]}},{"type":"Feature","id":76928822,"properties":{"osmId":76928822,"name":"","kind":"building","height":6,"heightEstimated":true,"highway":""},"geometry":{"type":"Polygon","coordinates":[[[-1.0619472,46.940874],[-1.0620101,46.9408047],[-1.0618941,46.9407532],[-1.0618312,46.9408225],[-1.0619472,46.940874]]]}},{"type":"Feature","id":76928829,"properties":{"osmId":76928829,"name":"","kind":"building","height":6,"heightEstimated":true,"highway":""},"geometry":{"type":"Polygon","coordinates":[[[-1.0626319,46.9401395],[-1.0626776,46.9402249],[-1.0627652,46.9402022],[-1.0627196,46.9401171],[-1.0626319,46.9401395]]]}},{"type":"Feature","id":76928862,"properties":{"osmId":76928862,"name":"","kind":"building","height":6,"heightEstimated":true,"highway":""},"geometry":{"type":"Polygon","coordinates":[[[-1.0628672,46.9434086],[-1.0628007,46.9433271],[-1.0627649,46.9433409],[-1.062725,46.9432909],[-1.0625689,46.9433496],[-1.0626388,46.9434353],[-1.0627418,46.9433981],[-1.062778,46.9434417],[-1.0628672,46.9434086]]]}},{"type":"Feature","id":76928868,"properties":{"osmId":76928868,"name":"","kind":"building","height":6,"heightEstimated":true,"highway":""},"geometry":{"type":"Polygon","coordinates":[[[-1.0603418,46.9432134],[-1.0603592,46.9431735],[-1.0603026,46.9431616],[-1.0603442,46.9430685],[-1.0601889,46.9430365],[-1.0601799,46.9430618],[-1.0601868,46.9430708],[-1.0601601,46.9431317],[-1.0601433,46.9431377],[-1.0601293,46.9431695],[-1.0603139,46.9432076],[-1.0603418,46.9432134]]]}},{"type":"Feature","id":76928923,"properties":{"osmId":76928923,"name":"","kind":"building","height":6,"heightEstimated":true,"highway":""},"geometry":{"type":"Polygon","coordinates":[[[-1.0629175,46.9429774],[-1.0629511,46.9429651],[-1.0629337,46.9429522],[-1.062941,46.9429459],[-1.0629039,46.9429208],[-1.0628697,46.9429459],[-1.0628895,46.9429591],[-1.0629175,46.9429774]]]}},{"type":"Feature","id":76928970,"properties":{"osmId":76928970,"name":"","kind":"building","height":6,"heightEstimated":true,"highway":""},"geometry":{"type":"Polygon","coordinates":[[[-1.0580408,46.9425664],[-1.0581015,46.9424976],[-1.0579596,46.9424355],[-1.057899,46.9425037],[-1.0580408,46.9425664]]]}},{"type":"Feature","id":76928999,"properties":{"osmId":76928999,"name":"","kind":"building","height":6,"heightEstimated":true,"highway":""},"geometry":{"type":"Polygon","coordinates":[[[-1.0588177,46.9430364],[-1.0589514,46.9427324],[-1.0588226,46.9427081],[-1.0586912,46.9430113],[-1.0588177,46.9430364]]]}},{"type":"Feature","id":76929025,"properties":{"osmId":76929025,"name":"","kind":"building","height":6,"heightEstimated":true,"highway":""},"geometry":{"type":"Polygon","coordinates":[[[-1.0619274,46.9411928],[-1.0619033,46.9412258],[-1.0619316,46.941238],[-1.061959,46.9412056],[-1.0619274,46.9411928]]]}},{"type":"Feature","id":76929054,"properties":{"osmId":76929054,"name":"","kind":"building","height":6,"heightEstimated":true,"highway":""},"geometry":{"type":"Polygon","coordinates":[[[-1.0622871,46.9409964],[-1.0623269,46.9409536],[-1.0622562,46.9409201],[-1.0622133,46.9409633],[-1.0622871,46.9409964]]]}},{"type":"Feature","id":76929080,"properties":{"osmId":76929080,"name":"","kind":"building","height":6,"heightEstimated":true,"highway":""},"geometry":{"type":"Polygon","coordinates":[[[-1.0609679,46.9400175],[-1.0610398,46.9399846],[-1.0610237,46.9399684],[-1.0610714,46.9399464],[-1.0610383,46.9399129],[-1.0609775,46.9399483],[-1.0609453,46.9399669],[-1.0609698,46.9399914],[-1.0609517,46.9400006],[-1.0609679,46.9400175]]]}},{"type":"Feature","id":76929086,"properties":{"osmId":76929086,"name":"","kind":"building","height":6,"heightEstimated":true,"highway":""},"geometry":{"type":"Polygon","coordinates":[[[-1.0630862,46.9413157],[-1.0631243,46.9412908],[-1.0631071,46.9412818],[-1.0630489,46.9412471],[-1.0630577,46.9412386],[-1.0630399,46.9412321],[-1.063,46.9412742],[-1.0630862,46.9413157]]]}},{"type":"Feature","id":76929087,"properties":{"osmId":76929087,"name":"","kind":"building","height":6,"heightEstimated":true,"highway":""},"geometry":{"type":"Polygon","coordinates":[[[-1.0630358,46.9403088],[-1.0630211,46.9402815],[-1.0629558,46.9402974],[-1.0629668,46.9403188],[-1.0630082,46.9403073],[-1.0630358,46.9403088]]]}},{"type":"Feature","id":76929090,"properties":{"osmId":76929090,"name":"","kind":"building","height":6,"heightEstimated":true,"highway":""},"geometry":{"type":"Polygon","coordinates":[[[-1.0605963,46.943408],[-1.0605989,46.9434011],[-1.0605719,46.9433953],[-1.0605685,46.9434025],[-1.0605963,46.943408]]]}},{"type":"Feature","id":76929121,"properties":{"osmId":76929121,"name":"","kind":"building","height":6,"heightEstimated":true,"highway":""},"geometry":{"type":"Polygon","coordinates":[[[-1.0631251,46.9407329],[-1.0630929,46.9407319],[-1.0629821,46.940728],[-1.06301,46.9407652],[-1.0630204,46.9407788],[-1.0631225,46.9407819],[-1.0631251,46.9407329]]]}},{"type":"Feature","id":76929154,"properties":{"osmId":76929154,"name":"","kind":"building","height":6,"heightEstimated":true,"highway":""},"geometry":{"type":"Polygon","coordinates":[[[-1.0608786,46.9431411],[-1.0609701,46.9431803],[-1.0609996,46.9431247],[-1.0609189,46.9430834],[-1.060909,46.943078],[-1.0608786,46.9431411]]]}},{"type":"Feature","id":76929215,"properties":{"osmId":76929215,"name":"","kind":"building","height":6,"heightEstimated":true,"highway":""},"geometry":{"type":"Polygon","coordinates":[[[-1.0581519,46.9429569],[-1.0582391,46.9428661],[-1.0581475,46.9428258],[-1.0581235,46.9428506],[-1.0580666,46.9428237],[-1.058005,46.9428905],[-1.0581519,46.9429569]]]}},{"type":"Feature","id":76929256,"properties":{"osmId":76929256,"name":"","kind":"building","height":6,"heightEstimated":true,"highway":""},"geometry":{"type":"Polygon","coordinates":[[[-1.0584912,46.942202],[-1.0584749,46.942194],[-1.0584514,46.9422148],[-1.0584677,46.9422232],[-1.0584912,46.942202]]]}},{"type":"Feature","id":76929279,"properties":{"osmId":76929279,"name":"","kind":"building","height":6,"heightEstimated":true,"highway":""},"geometry":{"type":"Polygon","coordinates":[[[-1.0629206,46.9421187],[-1.0628777,46.9420999],[-1.0628929,46.942083],[-1.062748,46.9420222],[-1.0626871,46.9420875],[-1.062832,46.942149],[-1.0628443,46.9421347],[-1.0628928,46.942155],[-1.0629454,46.9421767],[-1.0629562,46.9421639],[-1.0629741,46.9421418],[-1.0629206,46.9421187]]]}},{"type":"Feature","id":76929318,"properties":{"osmId":76929318,"name":"","kind":"building","height":6,"heightEstimated":true,"highway":""},"geometry":{"type":"Polygon","coordinates":[[[-1.0620439,46.9431122],[-1.0620593,46.9430978],[-1.0621009,46.9430581],[-1.0620267,46.9430201],[-1.0618523,46.9429311],[-1.0618097,46.9429689],[-1.0617929,46.9429842],[-1.0618556,46.9430162],[-1.0620439,46.9431122]]]}},{"type":"Feature","id":76929335,"properties":{"osmId":76929335,"name":"","kind":"building","height":6,"heightEstimated":true,"highway":""},"geometry":{"type":"Polygon","coordinates":[[[-1.0601152,46.9416693],[-1.0601423,46.9416338],[-1.0601468,46.9416208],[-1.060147,46.9416129],[-1.0601449,46.9416066],[-1.0601648,46.9415887],[-1.0601421,46.9415895],[-1.059979,46.9417227],[-1.0599829,46.9417539],[-1.0600295,46.941717],[-1.0600145,46.9417073],[-1.0600284,46.9416915],[-1.060047,46.9416999],[-1.0600611,46.9416978],[-1.0601152,46.9416693]]]}},{"type":"Feature","id":76929342,"properties":{"osmId":76929342,"name":"","kind":"building","height":6,"heightEstimated":true,"highway":""},"geometry":{"type":"Polygon","coordinates":[[[-1.062816,46.9412237],[-1.0628241,46.941228],[-1.0628314,46.9412206],[-1.0628241,46.9412169],[-1.062816,46.9412237]]]}},{"type":"Feature","id":76929343,"properties":{"osmId":76929343,"name":"","kind":"building","height":6,"heightEstimated":true,"highway":""},"geometry":{"type":"Polygon","coordinates":[[[-1.0625314,46.9402711],[-1.0624611,46.9403146],[-1.0624966,46.9403797],[-1.0623349,46.9404693],[-1.0623275,46.9404653],[-1.0622254,46.9405231],[-1.0622433,46.9405424],[-1.0621907,46.9405725],[-1.0622033,46.9405835],[-1.0622267,46.9405712],[-1.0622417,46.9405839],[-1.0623123,46.9405436],[-1.0623274,46.9405352],[-1.0623634,46.9405146],[-1.0623942,46.9404975],[-1.0624559,46.9404639],[-1.0625971,46.9403826],[-1.0625515,46.9403086],[-1.0625314,46.9402711]]]}},{"type":"Feature","id":76929371,"properties":{"osmId":76929371,"name":"","kind":"building","height":6,"heightEstimated":true,"highway":""},"geometry":{"type":"Polygon","coordinates":[[[-1.0629354,46.9401216],[-1.0628723,46.940147],[-1.0628849,46.9401694],[-1.0628913,46.9401812],[-1.0629005,46.9401984],[-1.0629665,46.9401811],[-1.0629354,46.9401216]]]}},{"type":"Feature","id":76929505,"properties":{"osmId":76929505,"name":"","kind":"building","height":6,"heightEstimated":true,"highway":""},"geometry":{"type":"Polygon","coordinates":[[[-1.061275,46.9436271],[-1.0613987,46.9435831],[-1.0613482,46.9435175],[-1.0613642,46.9435116],[-1.0613425,46.9434828],[-1.0612608,46.943512],[-1.0612809,46.9435392],[-1.0612237,46.9435597],[-1.061275,46.9436271]]]}},{"type":"Feature","id":76929523,"properties":{"osmId":76929523,"name":"","kind":"building","height":6,"heightEstimated":true,"highway":""},"geometry":{"type":"Polygon","coordinates":[[[-1.0626572,46.9424067],[-1.0627033,46.942353],[-1.0624945,46.9422652],[-1.0624454,46.9423197],[-1.0626572,46.9424067]]]}},{"type":"Feature","id":76929534,"properties":{"osmId":76929534,"name":"","kind":"building","height":6,"heightEstimated":true,"highway":""},"geometry":{"type":"Polygon","coordinates":[[[-1.0594162,46.9433144],[-1.0594304,46.9432843],[-1.0593627,46.9432695],[-1.0593493,46.9433003],[-1.0594162,46.9433144]]]}},{"type":"Feature","id":76929553,"properties":{"osmId":76929553,"name":"","kind":"building","height":6,"heightEstimated":true,"highway":""},"geometry":{"type":"Polygon","coordinates":[[[-1.0627115,46.9417677],[-1.0626097,46.9418823],[-1.0624434,46.9420662],[-1.0622631,46.9422616],[-1.0623683,46.9423057],[-1.0625444,46.9421168],[-1.06267,46.9419761],[-1.062777,46.9418567],[-1.0628588,46.9419023],[-1.0628944,46.9418754],[-1.0628107,46.9418259],[-1.0627115,46.9417677]]]}},{"type":"Feature","id":76929557,"properties":{"osmId":76929557,"name":"","kind":"building","height":6,"heightEstimated":true,"highway":""},"geometry":{"type":"Polygon","coordinates":[[[-1.0594899,46.9400964],[-1.059597,46.9400105],[-1.0594728,46.9399432],[-1.0593703,46.9400286],[-1.0594899,46.9400964]]]}},{"type":"Feature","id":76929560,"properties":{"osmId":76929560,"name":"","kind":"building","height":6,"heightEstimated":true,"highway":""},"geometry":{"type":"Polygon","coordinates":[[[-1.0617582,46.9412855],[-1.0618174,46.9412192],[-1.0616967,46.9411668],[-1.0616352,46.9412346],[-1.0617582,46.9412855]]]}},{"type":"Feature","id":76929564,"properties":{"osmId":76929564,"name":"","kind":"building","height":6,"heightEstimated":true,"highway":""},"geometry":{"type":"Polygon","coordinates":[[[-1.0616964,46.9430247],[-1.0617086,46.9430307],[-1.0617314,46.943042],[-1.061746,46.9430279],[-1.061711,46.943011],[-1.0616964,46.9430247]]]}},{"type":"Feature","id":76929588,"properties":{"osmId":76929588,"name":"","kind":"building","height":6,"heightEstimated":true,"highway":""},"geometry":{"type":"Polygon","coordinates":[[[-1.062262,46.941462],[-1.0623073,46.9414079],[-1.0622249,46.9413752],[-1.0621781,46.9414293],[-1.062262,46.941462]]]}},{"type":"Feature","id":76929617,"properties":{"osmId":76929617,"name":"","kind":"building","height":6,"heightEstimated":true,"highway":""},"geometry":{"type":"Polygon","coordinates":[[[-1.0627432,46.9403456],[-1.062782,46.9404141],[-1.0628419,46.9403978],[-1.0628361,46.9403837],[-1.0628956,46.9403827],[-1.062897,46.9403498],[-1.0628538,46.9403485],[-1.0627432,46.9403456]]]}},{"type":"Feature","id":76929620,"properties":{"osmId":76929620,"name":"","kind":"building","height":6,"heightEstimated":true,"highway":""},"geometry":{"type":"Polygon","coordinates":[[[-1.0603522,46.9435682],[-1.0604772,46.9435945],[-1.0605132,46.9435208],[-1.0605092,46.9435199],[-1.0605268,46.9434836],[-1.0604598,46.9434681],[-1.0604774,46.9434307],[-1.0604224,46.9434188],[-1.0603522,46.9435682]]]}},{"type":"Feature","id":76929687,"properties":{"osmId":76929687,"name":"","kind":"building","height":6,"heightEstimated":true,"highway":""},"geometry":{"type":"Polygon","coordinates":[[[-1.0605319,46.9431884],[-1.0605821,46.9431998],[-1.0606133,46.9431356],[-1.0605631,46.9431242],[-1.0605319,46.9431884]]]}},{"type":"Feature","id":76929787,"properties":{"osmId":76929787,"name":"","kind":"building","height":6,"heightEstimated":true,"highway":""},"geometry":{"type":"Polygon","coordinates":[[[-1.0583775,46.9421807],[-1.0583804,46.9421774],[-1.0583914,46.9421681],[-1.0582821,46.942111],[-1.0582924,46.9421017],[-1.0581838,46.9420446],[-1.0581589,46.9420665],[-1.0583775,46.9421807]]]}},{"type":"Feature","id":76929842,"properties":{"osmId":76929842,"name":"","kind":"building","height":6,"heightEstimated":true,"highway":""},"geometry":{"type":"Polygon","coordinates":[[[-1.0614378,46.9413786],[-1.0615423,46.9414387],[-1.0615643,46.9414208],[-1.0614598,46.9413608],[-1.0614378,46.9413786]]]}},{"type":"Feature","id":76929846,"properties":{"osmId":76929846,"name":"","kind":"building","height":6,"heightEstimated":true,"highway":""},"geometry":{"type":"Polygon","coordinates":[[[-1.0620713,46.943184],[-1.0620296,46.9431616],[-1.0620027,46.9431889],[-1.0620395,46.9432097],[-1.0620713,46.943184]]]}},{"type":"Feature","id":76929870,"properties":{"osmId":76929870,"name":"","kind":"building","height":6,"heightEstimated":true,"highway":""},"geometry":{"type":"Polygon","coordinates":[[[-1.0626789,46.9416269],[-1.0627491,46.9415816],[-1.062721,46.9415634],[-1.0626533,46.9416097],[-1.0626789,46.9416269]]]}},{"type":"Feature","id":76929893,"properties":{"osmId":76929893,"name":"","kind":"building","height":6,"heightEstimated":true,"highway":""},"geometry":{"type":"Polygon","coordinates":[[[-1.0629361,46.9405039],[-1.0629345,46.9404822],[-1.0629031,46.9404815],[-1.0628828,46.9404416],[-1.0629027,46.9404352],[-1.0628969,46.9404201],[-1.0628722,46.9404252],[-1.0628614,46.940407],[-1.0627884,46.9404253],[-1.0627973,46.94044],[-1.0628333,46.9405019],[-1.0629361,46.9405039]]]}},{"type":"Feature","id":76929900,"properties":{"osmId":76929900,"name":"","kind":"building","height":6,"heightEstimated":true,"highway":""},"geometry":{"type":"Polygon","coordinates":[[[-1.0630211,46.9402815],[-1.062975,46.9401997],[-1.0629665,46.9401811],[-1.0629005,46.9401984],[-1.0629558,46.9402974],[-1.0630211,46.9402815]]]}},{"type":"Feature","id":76930059,"properties":{"osmId":76930059,"name":"","kind":"building","height":6,"heightEstimated":true,"highway":""},"geometry":{"type":"Polygon","coordinates":[[[-1.0576287,46.9428878],[-1.0577473,46.9428183],[-1.0578101,46.9428196],[-1.0578133,46.9427068],[-1.0577446,46.9427103],[-1.057745,46.9427367],[-1.057694,46.9427353],[-1.0576958,46.9427805],[-1.0576297,46.9428175],[-1.0575897,46.9427857],[-1.0575381,46.9428182],[-1.0576287,46.9428878]]]}},{"type":"Feature","id":76930095,"properties":{"osmId":76930095,"name":"","kind":"building","height":6,"heightEstimated":true,"highway":""},"geometry":{"type":"Polygon","coordinates":[[[-1.0630226,46.9424301],[-1.0631262,46.9423401],[-1.0630317,46.9422917],[-1.062928,46.9423817],[-1.0630226,46.9424301]]]}},{"type":"Feature","id":76930107,"properties":{"osmId":76930107,"name":"","kind":"building","height":6,"heightEstimated":true,"highway":""},"geometry":{"type":"Polygon","coordinates":[[[-1.0593452,46.9431525],[-1.0593901,46.9430521],[-1.0592882,46.9430311],[-1.059244,46.9431307],[-1.0593452,46.9431525]]]}},{"type":"Feature","id":76930138,"properties":{"osmId":76930138,"name":"","kind":"building","height":6,"heightEstimated":true,"highway":""},"geometry":{"type":"Polygon","coordinates":[[[-1.0615596,46.9411984],[-1.0616226,46.9411298],[-1.0614915,46.9410753],[-1.0614263,46.941145],[-1.0615596,46.9411984]]]}},{"type":"Feature","id":76930141,"properties":{"osmId":76930141,"name":"","kind":"building","height":6,"heightEstimated":true,"highway":""},"geometry":{"type":"Polygon","coordinates":[[[-1.0594291,46.9429986],[-1.0594677,46.9429074],[-1.0593554,46.9428839],[-1.059317,46.9429773],[-1.0594291,46.9429986]]]}},{"type":"Feature","id":76930142,"properties":{"osmId":76930142,"name":"","kind":"building","height":6,"heightEstimated":true,"highway":""},"geometry":{"type":"Polygon","coordinates":[[[-1.0615327,46.9427462],[-1.0615849,46.9427005],[-1.0616053,46.9427112],[-1.0616469,46.9426709],[-1.0616371,46.9426662],[-1.0616049,46.9426959],[-1.0615617,46.9426746],[-1.0614978,46.94273],[-1.0615327,46.9427462]]]}},{"type":"Feature","id":76930167,"properties":{"osmId":76930167,"name":"","kind":"building","height":6,"heightEstimated":true,"highway":""},"geometry":{"type":"Polygon","coordinates":[[[-1.0620654,46.941214],[-1.0620252,46.9412625],[-1.0620833,46.941285],[-1.0620753,46.9412928],[-1.06211,46.9413065],[-1.0620878,46.9413344],[-1.0621459,46.9413563],[-1.062227,46.9412585],[-1.0621181,46.9412167],[-1.0621073,46.9412296],[-1.0620654,46.941214]]]}},{"type":"Feature","id":76930171,"properties":{"osmId":76930171,"name":"","kind":"building","height":6,"heightEstimated":true,"highway":""},"geometry":{"type":"Polygon","coordinates":[[[-1.0615327,46.9427462],[-1.0615668,46.9427625],[-1.061586,46.9427465],[-1.0616522,46.9427819],[-1.0616748,46.9427601],[-1.061696,46.9427708],[-1.0617523,46.9427185],[-1.0617368,46.9427101],[-1.0617536,46.9426942],[-1.0617882,46.942664],[-1.0617327,46.942635],[-1.0617239,46.9426424],[-1.0616855,46.9426228],[-1.0616371,46.9426662],[-1.0616469,46.9426709],[-1.0616053,46.9427112],[-1.0615849,46.9427005],[-1.0615327,46.9427462]]]}},{"type":"Feature","id":76930189,"properties":{"osmId":76930189,"name":"","kind":"building","height":6,"heightEstimated":true,"highway":""},"geometry":{"type":"Polygon","coordinates":[[[-1.0607952,46.9400029],[-1.0608531,46.9399709],[-1.0608489,46.9399671],[-1.0608371,46.9399568],[-1.0608154,46.939938],[-1.0607566,46.9399693],[-1.0607952,46.9400029]]]}},{"type":"Feature","id":76930196,"properties":{"osmId":76930196,"name":"","kind":"building","height":6,"heightEstimated":true,"highway":""},"geometry":{"type":"Polygon","coordinates":[[[-1.0608016,46.9404499],[-1.0607372,46.9404576],[-1.0607461,46.9404929],[-1.0608106,46.9404853],[-1.0608016,46.9404499]]]}},{"type":"Feature","id":76930261,"properties":{"osmId":76930261,"name":"","kind":"building","height":6,"heightEstimated":true,"highway":""},"geometry":{"type":"Polygon","coordinates":[[[-1.0611292,46.9431911],[-1.0611691,46.9432114],[-1.0611873,46.9431929],[-1.061149,46.943174],[-1.0611292,46.9431911]]]}},{"type":"Feature","id":76930285,"properties":{"osmId":76930285,"name":"","kind":"building","height":6,"heightEstimated":true,"highway":""},"geometry":{"type":"Polygon","coordinates":[[[-1.0628315,46.942679],[-1.0628993,46.9426028],[-1.0628799,46.9425942],[-1.0629188,46.9425497],[-1.0628186,46.9425097],[-1.0627523,46.9425852],[-1.0627353,46.942579],[-1.0626964,46.9426232],[-1.0628315,46.942679]]]}},{"type":"Feature","id":76930387,"properties":{"osmId":76930387,"name":"","kind":"building","height":6,"heightEstimated":true,"highway":""},"geometry":{"type":"Polygon","coordinates":[[[-1.0595469,46.9428254],[-1.0595647,46.9427819],[-1.0595376,46.9427758],[-1.0595622,46.9427178],[-1.0594374,46.9426934],[-1.0593987,46.9427939],[-1.0595469,46.9428254]]]}},{"type":"Feature","id":76930428,"properties":{"osmId":76930428,"name":"","kind":"building","height":6,"heightEstimated":true,"highway":""},"geometry":{"type":"Polygon","coordinates":[[[-1.0613903,46.9410635],[-1.0614479,46.941089],[-1.0614701,46.9410618],[-1.0614142,46.9410377],[-1.0613903,46.9410635]]]}},{"type":"Feature","id":76930432,"properties":{"osmId":76930432,"name":"","kind":"building","height":6,"heightEstimated":true,"highway":""},"geometry":{"type":"Polygon","coordinates":[[[-1.0618259,46.9424587],[-1.0618469,46.9424362],[-1.0617755,46.9424041],[-1.061753,46.9424274],[-1.0618259,46.9424587]]]}},{"type":"Feature","id":76930464,"properties":{"osmId":76930464,"name":"","kind":"building","height":6,"heightEstimated":true,"highway":""},"geometry":{"type":"Polygon","coordinates":[[[-1.0631129,46.9413893],[-1.0630487,46.9413581],[-1.0629935,46.9413946],[-1.0630481,46.9414333],[-1.0630772,46.9414137],[-1.0631129,46.9413893]]]}},{"type":"Feature","id":76930470,"properties":{"osmId":76930470,"name":"","kind":"building","height":6,"heightEstimated":true,"highway":""},"geometry":{"type":"Polygon","coordinates":[[[-1.0622572,46.9430426],[-1.0622447,46.9431118],[-1.0623053,46.9431303],[-1.0624636,46.9429402],[-1.0623774,46.9429017],[-1.0623578,46.9429224],[-1.062276,46.9430209],[-1.0622572,46.9430426]]]}},{"type":"Feature","id":76930499,"properties":{"osmId":76930499,"name":"","kind":"building","height":6,"heightEstimated":true,"highway":""},"geometry":{"type":"Polygon","coordinates":[[[-1.0623942,46.9404975],[-1.0623634,46.9405146],[-1.0623274,46.9405352],[-1.0623368,46.9405459],[-1.0623494,46.9405472],[-1.0623904,46.9405818],[-1.0623532,46.9406077],[-1.0623958,46.9406426],[-1.0624085,46.9406336],[-1.0625073,46.9405723],[-1.0624646,46.9405367],[-1.062457,46.9405402],[-1.062426,46.9405128],[-1.0624184,46.9405166],[-1.0623942,46.9404975]]]}},{"type":"Feature","id":76930513,"properties":{"osmId":76930513,"name":"","kind":"building","height":6,"heightEstimated":true,"highway":""},"geometry":{"type":"Polygon","coordinates":[[[-1.0609289,46.9401126],[-1.0611422,46.940012],[-1.0611762,46.9399954],[-1.0611559,46.9399758],[-1.0610704,46.9400156],[-1.0610398,46.9399846],[-1.0609679,46.9400175],[-1.0609781,46.9400282],[-1.0608759,46.9400749],[-1.060919,46.9401169],[-1.0609289,46.9401126]]]}},{"type":"Feature","id":76930684,"properties":{"osmId":76930684,"name":"","kind":"building","height":6,"heightEstimated":true,"highway":""},"geometry":{"type":"Polygon","coordinates":[[[-1.0593478,46.9431973],[-1.0592976,46.9431866],[-1.0592842,46.9432156],[-1.0593343,46.9432253],[-1.0593478,46.9431973]]]}},{"type":"Feature","id":76930715,"properties":{"osmId":76930715,"name":"","kind":"building","height":6,"heightEstimated":true,"highway":""},"geometry":{"type":"Polygon","coordinates":[[[-1.0594162,46.9433144],[-1.0593493,46.9433003],[-1.0593133,46.9433826],[-1.0594629,46.9434129],[-1.0594981,46.9433304],[-1.0594162,46.9433144]]]}},{"type":"Feature","id":76930735,"properties":{"osmId":76930735,"name":"","kind":"building","height":6,"heightEstimated":true,"highway":""},"geometry":{"type":"Polygon","coordinates":[[[-1.0599685,46.9424954],[-1.0600721,46.9423726],[-1.0599337,46.9423144],[-1.0599004,46.9423509],[-1.0599321,46.9423669],[-1.0598887,46.9424145],[-1.0598587,46.9424013],[-1.0598272,46.9424395],[-1.0599685,46.9424954]]]}},{"type":"Feature","id":76930739,"properties":{"osmId":76930739,"name":"","kind":"building","height":6,"heightEstimated":true,"highway":""},"geometry":{"type":"Polygon","coordinates":[[[-1.0596255,46.9399945],[-1.0596764,46.9400241],[-1.0597141,46.9399946],[-1.0596647,46.9399639],[-1.0596255,46.9399945]]]}},{"type":"Feature","id":76930742,"properties":{"osmId":76930742,"name":"","kind":"building","height":6,"heightEstimated":true,"highway":""},"geometry":{"type":"Polygon","coordinates":[[[-1.0619472,46.940874],[-1.0620688,46.9409281],[-1.0621317,46.9408589],[-1.0620101,46.9408047],[-1.0619472,46.940874]]]}},{"type":"Feature","id":76930746,"properties":{"osmId":76930746,"name":"","kind":"building","height":6,"heightEstimated":true,"highway":""},"geometry":{"type":"Polygon","coordinates":[[[-1.0617523,46.9427185],[-1.0617699,46.9427025],[-1.0617536,46.9426942],[-1.0617368,46.9427101],[-1.0617523,46.9427185]]]}},{"type":"Feature","id":76930767,"properties":{"osmId":76930767,"name":"","kind":"building","height":6,"heightEstimated":true,"highway":""},"geometry":{"type":"Polygon","coordinates":[[[-1.0604943,46.9404862],[-1.0606162,46.9404723],[-1.0605599,46.9404346],[-1.0604943,46.9404862]]]}},{"type":"Feature","id":76930771,"properties":{"osmId":76930771,"name":"","kind":"building","height":6,"heightEstimated":true,"highway":""},"geometry":{"type":"Polygon","coordinates":[[[-1.0612266,46.9406212],[-1.0612868,46.940558],[-1.0613145,46.9405713],[-1.0613523,46.9405325],[-1.061222,46.9404783],[-1.061126,46.9405755],[-1.0612266,46.9406212]]]}},{"type":"Feature","id":76930774,"properties":{"osmId":76930774,"name":"","kind":"building","height":6,"heightEstimated":true,"highway":""},"geometry":{"type":"Polygon","coordinates":[[[-1.0597974,46.9433504],[-1.0598343,46.9432681],[-1.0596846,46.9432367],[-1.0596485,46.9433193],[-1.0597974,46.9433504]]]}},{"type":"Feature","id":76930862,"properties":{"osmId":76930862,"name":"","kind":"building","height":6,"heightEstimated":true,"highway":""},"geometry":{"type":"Polygon","coordinates":[[[-1.0626529,46.9430014],[-1.0626015,46.9430257],[-1.0626221,46.9430396],[-1.0626685,46.9430205],[-1.0626529,46.9430014]]]}},{"type":"Feature","id":76930892,"properties":{"osmId":76930892,"name":"","kind":"building","height":6,"heightEstimated":true,"highway":""},"geometry":{"type":"Polygon","coordinates":[[[-1.0631375,46.9429842],[-1.0630796,46.9429138],[-1.0629706,46.9429537],[-1.0630246,46.9430253],[-1.0631375,46.9429842]]]}},{"type":"Feature","id":95145484,"properties":{"osmId":95145484,"name":"","kind":"road","height":6,"heightEstimated":true,"highway":"residential"},"geometry":{"type":"LineString","coordinates":[[-1.0577404,46.9429921],[-1.0580681,46.9432547],[-1.0582813,46.943316],[-1.0583386,46.9433501],[-1.0583429,46.9433901]]}},{"type":"Feature","id":95145518,"properties":{"osmId":95145518,"name":"Rue du Stade","kind":"road","height":6,"heightEstimated":true,"highway":"residential"},"geometry":{"type":"LineString","coordinates":[[-1.0616467,46.9405293],[-1.0616139,46.9405633],[-1.0609747,46.9410531],[-1.0609092,46.9411011],[-1.060886,46.9411182],[-1.0608364,46.9411541],[-1.0600116,46.9418102],[-1.0599475,46.9418571],[-1.0598877,46.9419008],[-1.0596379,46.9421004],[-1.0594719,46.9422674],[-1.0593444,46.9424492],[-1.0593198,46.9424928],[-1.0592896,46.9425462],[-1.058974,46.9431624],[-1.0589024,46.9433023],[-1.0588653,46.9433811],[-1.058842,46.943434],[-1.0588282,46.9434611]]}},{"type":"Feature","id":95145537,"properties":{"osmId":95145537,"name":"Rue de la Salette","kind":"road","height":6,"heightEstimated":true,"highway":"residential"},"geometry":{"type":"LineString","coordinates":[[-1.058031,46.9372988],[-1.0579933,46.9373253],[-1.0579718,46.9373417],[-1.0579499,46.9373714],[-1.0580028,46.9374673],[-1.0582603,46.9377274],[-1.058628,46.93795],[-1.058825,46.938062],[-1.059022,46.9382347],[-1.0593085,46.9385435],[-1.0596295,46.9388958],[-1.0596658,46.9389214],[-1.0598476,46.9391404],[-1.0600397,46.9393421],[-1.0602868,46.9395804],[-1.0604429,46.9397224],[-1.0608861,46.9401362],[-1.0611249,46.9402986],[-1.0613088,46.9403953],[-1.0616467,46.9405293],[-1.0617381,46.9405688],[-1.0624833,46.9408912],[-1.0626967,46.9409835],[-1.0631072,46.9411515],[-1.0631723,46.9411507],[-1.0632221,46.9411359]]}},{"type":"Feature","id":95145793,"properties":{"osmId":95145793,"name":"Rue de la Frèrie","kind":"road","height":6,"heightEstimated":true,"highway":"tertiary"},"geometry":{"type":"LineString","coordinates":[[-1.0582543,46.937456],[-1.0584272,46.9375334],[-1.0586126,46.9376014],[-1.0588602,46.9376706],[-1.0591169,46.9377255],[-1.0597074,46.9378221],[-1.0600243,46.9379043],[-1.0602955,46.9380054],[-1.0606142,46.9381515],[-1.0608263,46.938256],[-1.0612099,46.9384846],[-1.0614693,46.9387009],[-1.0616325,46.938847],[-1.0618622,46.9390526],[-1.0619649,46.9391561],[-1.062049,46.9392538],[-1.0621253,46.9393563],[-1.0621377,46.9393729],[-1.0622596,46.9395443],[-1.062612,46.9402571],[-1.0627839,46.9405526],[-1.0629512,46.9407904],[-1.063121,46.9410125],[-1.0632221,46.9411359],[-1.0632731,46.9411798],[-1.0633217,46.9412216],[-1.0634213,46.9412969],[-1.0637533,46.9414874],[-1.0638417,46.9415381],[-1.0639125,46.9416033]]}},{"type":"Feature","id":95147359,"properties":{"osmId":95147359,"name":"Rue des Grands Champs","kind":"road","height":6,"heightEstimated":true,"highway":"residential"},"geometry":{"type":"LineString","coordinates":[[-1.0631687,46.9419943],[-1.062507,46.941604],[-1.0623012,46.9415295]]}},{"type":"Feature","id":95147487,"properties":{"osmId":95147487,"name":"Rue de la Garenne","kind":"road","height":6,"heightEstimated":true,"highway":"residential"},"geometry":{"type":"LineString","coordinates":[[-1.0631687,46.9419943],[-1.0629488,46.9422214],[-1.0624463,46.9427765],[-1.0621763,46.9430748],[-1.0621584,46.9431489],[-1.062187,46.9432213],[-1.0623793,46.9433187],[-1.062421,46.943355]]}},{"type":"Feature","id":96642291,"properties":{"osmId":96642291,"name":"","kind":"road","height":6,"heightEstimated":true,"highway":"track"},"geometry":{"type":"LineString","coordinates":[[-1.0593096,46.9407108],[-1.0594715,46.9407147],[-1.0595484,46.9407161],[-1.0596192,46.9407155],[-1.0598225,46.940692],[-1.0599701,46.9407065],[-1.0601225,46.9407593],[-1.060669,46.9410499]]}},{"type":"Feature","id":96642378,"properties":{"osmId":96642378,"name":"","kind":"road","height":6,"heightEstimated":true,"highway":"track"},"geometry":{"type":"LineString","coordinates":[[-1.0593096,46.9407108],[-1.0589997,46.9406893],[-1.0588253,46.9405946],[-1.058462,46.9404544],[-1.0580582,46.9403216],[-1.0575393,46.9401907],[-1.0572675,46.940092],[-1.05666,46.9398217],[-1.0560158,46.9396267],[-1.0556941,46.9395607],[-1.0553719,46.9394358],[-1.055204,46.9393806],[-1.0551001,46.9393943],[-1.0549345,46.9392537],[-1.0547889,46.9391629],[-1.0546607,46.9390986],[-1.0546139,46.938988]]}},{"type":"Feature","id":114871554,"properties":{"osmId":114871554,"name":"Impasse du Guémessé","kind":"road","height":6,"heightEstimated":true,"highway":"residential"},"geometry":{"type":"LineString","coordinates":[[-1.0593444,46.9424492],[-1.0592942,46.9424358],[-1.0592291,46.9424101],[-1.0580682,46.9417663]]}},{"type":"Feature","id":336691790,"properties":{"osmId":336691790,"name":"Rue du Grenier","kind":"road","height":6,"heightEstimated":true,"highway":"residential"},"geometry":{"type":"LineString","coordinates":[[-1.0593444,46.9424492],[-1.059402,46.9424677],[-1.0594594,46.9424868],[-1.0594892,46.9424967],[-1.0597451,46.9425841],[-1.0598803,46.9426303],[-1.060023,46.9426729],[-1.060041,46.9426783],[-1.0606473,46.9428593],[-1.0607551,46.9428174]]}},{"type":"Feature","id":336696037,"properties":{"osmId":336696037,"name":"Impasse de la Garenne","kind":"road","height":6,"heightEstimated":true,"highway":"residential"},"geometry":{"type":"LineString","coordinates":[[-1.0620089,46.9425788],[-1.0624463,46.9427765]]}},{"type":"Feature","id":336696038,"properties":{"osmId":336696038,"name":"","kind":"road","height":6,"heightEstimated":true,"highway":"footway"},"geometry":{"type":"LineString","coordinates":[[-1.0580682,46.9417663],[-1.0579971,46.9418029],[-1.0578358,46.9419492],[-1.0578402,46.942032],[-1.0578007,46.9420658],[-1.0576805,46.9421117],[-1.0576136,46.9424145],[-1.0575999,46.942555],[-1.0575628,46.9426363],[-1.0574815,46.9427163],[-1.0572082,46.9429083],[-1.0569428,46.9429867],[-1.0567527,46.9429813],[-1.0565772,46.942908],[-1.0564437,46.9428001],[-1.0562734,46.9425919],[-1.0561228,46.9424134],[-1.0560317,46.942289],[-1.0558931,46.942216],[-1.0556911,46.9421456],[-1.0555168,46.9421132],[-1.0553346,46.9420888],[-1.0553092,46.9420751],[-1.0552593,46.9420483],[-1.0548275,46.9417697],[-1.0544854,46.9415537],[-1.0543007,46.9414371],[-1.0539679,46.9411558],[-1.0537349,46.9409016],[-1.0536471,46.9408394],[-1.0533262,46.9405743],[-1.0529361,46.9402318]]}},{"type":"Feature","id":549387758,"properties":{"osmId":549387758,"name":"Rue du Grenier","kind":"road","height":6,"heightEstimated":true,"highway":"path"},"geometry":{"type":"LineString","coordinates":[[-1.0620089,46.9425788],[-1.0616398,46.9424041],[-1.0613246,46.9426211],[-1.0612589,46.9426632],[-1.0611771,46.9426705],[-1.0610645,46.9426238],[-1.0605182,46.9422952],[-1.0604729,46.942268],[-1.0598877,46.9419008]]}},{"type":"Feature","id":733162815,"properties":{"osmId":733162815,"name":"","kind":"parking","height":6,"heightEstimated":true,"highway":""},"geometry":{"type":"Polygon","coordinates":[[[-1.0603817,46.9426313],[-1.0602249,46.9425277],[-1.060041,46.9426783],[-1.0600593,46.9427383],[-1.0602122,46.9427667],[-1.0603817,46.9426313]]]}},{"type":"Feature","id":733162816,"properties":{"osmId":733162816,"name":"","kind":"parking","height":6,"heightEstimated":true,"highway":""},"geometry":{"type":"Polygon","coordinates":[[[-1.0597193,46.9426568],[-1.0597451,46.9425841],[-1.0594892,46.9424967],[-1.0594337,46.9425588],[-1.0597193,46.9426568]]]}},{"type":"Feature","id":733162817,"properties":{"osmId":733162817,"name":"","kind":"road","height":6,"heightEstimated":true,"highway":"path"},"geometry":{"type":"LineString","coordinates":[[-1.0605182,46.9422952],[-1.0603309,46.9423675]]}},{"type":"Feature","id":733162818,"properties":{"osmId":733162818,"name":"","kind":"road","height":6,"heightEstimated":true,"highway":"service"},"geometry":{"type":"LineString","coordinates":[[-1.060023,46.9426729],[-1.0603309,46.9423675]]}},{"type":"Feature","id":733162819,"properties":{"osmId":733162819,"name":"","kind":"building","height":6,"heightEstimated":true,"highway":""},"geometry":{"type":"Polygon","coordinates":[[[-1.0605322,46.9424284],[-1.0604395,46.9423665],[-1.0605166,46.942334],[-1.0605642,46.9423844],[-1.0605233,46.9424119],[-1.0605408,46.9424224],[-1.0605322,46.9424284]]]}},{"type":"Feature","id":733162820,"properties":{"osmId":733162820,"name":"","kind":"building","height":6,"heightEstimated":true,"highway":""},"geometry":{"type":"Polygon","coordinates":[[[-1.0608638,46.9426347],[-1.0609833,46.942703],[-1.0610142,46.9426252],[-1.0607493,46.9425295],[-1.0606869,46.9424641],[-1.0606319,46.9424604],[-1.0606058,46.9424288],[-1.060579,46.942448],[-1.0606534,46.9425002],[-1.0606031,46.9425336],[-1.0606869,46.9425858],[-1.0607325,46.9425474],[-1.060876,46.9426243],[-1.0608638,46.9426347]]]}},{"type":"Feature","id":733162821,"properties":{"osmId":733162821,"name":"","kind":"building","height":6,"heightEstimated":true,"highway":""},"geometry":{"type":"Polygon","coordinates":[[[-1.060876,46.9426243],[-1.0607325,46.9425474],[-1.0606869,46.9425858],[-1.0606031,46.9425336],[-1.0606534,46.9425002],[-1.060579,46.942448],[-1.0606058,46.9424288],[-1.0605642,46.9423844],[-1.0605233,46.9424119],[-1.0605408,46.9424224],[-1.0605322,46.9424284],[-1.0603235,46.9425758],[-1.0604422,46.9426513],[-1.0603644,46.9427044],[-1.0604784,46.9427717],[-1.0604958,46.9427584],[-1.060638,46.9428326],[-1.0607231,46.942758],[-1.0607543,46.9427644],[-1.0607781,46.9427076],[-1.0608638,46.9426347],[-1.060876,46.9426243]]]}},{"type":"Feature","id":733800889,"properties":{"osmId":733800889,"name":"","kind":"wood","height":6,"heightEstimated":true,"highway":""},"geometry":{"type":"Polygon","coordinates":[[[-1.0612643,46.945648],[-1.0601914,46.9450547],[-1.0601163,46.945139],[-1.0594189,46.9448167],[-1.0592419,46.9445274],[-1.0594457,46.9442856],[-1.0591239,46.9440686],[-1.0586786,46.9436942],[-1.0586384,46.9435101],[-1.0577546,46.9433673],[-1.0573027,46.9434085],[-1.057025,46.9434818],[-1.0571806,46.9436228],[-1.0572866,46.9437226],[-1.0573563,46.9437454],[-1.0573885,46.9436337],[-1.0575642,46.9436447],[-1.0577331,46.9436768],[-1.0576084,46.9437931],[-1.0579102,46.9440513],[-1.0581502,46.9439853],[-1.0581677,46.944065],[-1.058169,46.9441318],[-1.0584345,46.9443543],[-1.0586827,46.9444138],[-1.058739,46.9444971],[-1.0585915,46.9445365],[-1.0586491,46.94465],[-1.0587001,46.9447352],[-1.0585351,46.9447938],[-1.0590568,46.945388],[-1.0595235,46.9455766],[-1.0596094,46.9455748],[-1.0596523,46.9453331],[-1.0595262,46.9452964],[-1.059427,46.9454008],[-1.059325,46.9453331],[-1.0593089,46.9451481],[-1.059553,46.9450822],[-1.0597086,46.9451866],[-1.0598588,46.9453715],[-1.0598615,46.9455418],[-1.0597381,46.9456846],[-1.0602585,46.9459227],[-1.0604543,46.9458641],[-1.0607252,46.9456114],[-1.0607547,46.9454686],[-1.0610738,46.9456901],[-1.0615942,46.9457817],[-1.0616022,46.945681],[-1.0613635,46.9456151],[-1.0612643,46.945648]]]}},{"type":"Feature","id":733883503,"properties":{"osmId":733883503,"name":"","kind":"road","height":6,"heightEstimated":true,"highway":"track"},"geometry":{"type":"LineString","coordinates":[[-1.0580682,46.9417663],[-1.0580752,46.9417271],[-1.0580573,46.9416435],[-1.0581008,46.9416013],[-1.0582453,46.9415449],[-1.0584773,46.9414022],[-1.0586457,46.941342],[-1.0586519,46.9413031],[-1.0586496,46.9412517],[-1.0586833,46.9411836],[-1.0587478,46.9411105],[-1.0588153,46.9410575],[-1.0588681,46.9409894],[-1.0589355,46.9408823],[-1.0589938,46.9407622],[-1.0589997,46.9406893]]}},{"type":"Feature","id":832629613,"properties":{"osmId":832629613,"name":"Rue des Grands Champs","kind":"road","height":6,"heightEstimated":true,"highway":"residential"},"geometry":{"type":"LineString","coordinates":[[-1.0623012,46.9415295],[-1.0620797,46.9414485],[-1.061875,46.9414058],[-1.0616648,46.9413541],[-1.0615108,46.9412913],[-1.0613853,46.9412373],[-1.0611123,46.9411299],[-1.0610269,46.9410876],[-1.0609747,46.9410531]]}},{"type":"Feature","id":843511720,"properties":{"osmId":843511720,"name":"","kind":"road","height":6,"heightEstimated":true,"highway":"service"},"geometry":{"type":"LineString","coordinates":[[-1.0597912,46.9435943],[-1.0599291,46.9432787],[-1.059905,46.94322]]}},{"type":"Feature","id":843511721,"properties":{"osmId":843511721,"name":"Rue de la Pierre Levée","kind":"road","height":6,"heightEstimated":true,"highway":"residential"},"geometry":{"type":"LineString","coordinates":[[-1.0622539,46.9436112],[-1.0622138,46.943593],[-1.0621762,46.9435605],[-1.0621286,46.9434972],[-1.0621076,46.9434697]]}},{"type":"Feature","id":894527463,"properties":{"osmId":894527463,"name":"Rue de la Marzelle","kind":"road","height":6,"heightEstimated":true,"highway":"residential"},"geometry":{"type":"LineString","coordinates":[[-1.0555156,46.938262],[-1.0555547,46.9382904],[-1.0557159,46.9385181],[-1.0559208,46.9386962],[-1.0562081,46.9389095],[-1.0567362,46.9392206],[-1.0568108,46.9392528],[-1.0576477,46.93975],[-1.0578166,46.9398294],[-1.0586888,46.9401192],[-1.0589376,46.9403616],[-1.059133,46.9403973],[-1.0594181,46.9402669],[-1.0599402,46.9398535],[-1.0602369,46.9396126],[-1.0602868,46.9395804]]}},{"type":"Feature","id":964180924,"properties":{"osmId":964180924,"name":"","kind":"road","height":6,"heightEstimated":true,"highway":"service"},"geometry":{"type":"LineString","coordinates":[[-1.061875,46.9414058],[-1.0618657,46.9414289],[-1.0621126,46.9416588]]}},{"type":"Feature","id":964180925,"properties":{"osmId":964180925,"name":"","kind":"road","height":6,"heightEstimated":true,"highway":"service"},"geometry":{"type":"LineString","coordinates":[[-1.0615108,46.9412913],[-1.061803,46.9415513],[-1.0618104,46.9415579],[-1.0619897,46.9417175],[-1.0620591,46.9417323],[-1.0621127,46.9417296],[-1.0621775,46.9417048],[-1.0622583,46.9415896],[-1.0622816,46.9415564],[-1.0623012,46.9415295]]}},{"type":"Feature","id":972054499,"properties":{"osmId":972054499,"name":"Square des Sources","kind":"road","height":6,"heightEstimated":true,"highway":"residential"},"geometry":{"type":"LineString","coordinates":[[-1.0599402,46.9398535],[-1.0602155,46.9400234],[-1.060245,46.9401198],[-1.0600466,46.9401993]]}},{"type":"Feature","id":1018788991,"properties":{"osmId":1018788991,"name":"","kind":"road","height":6,"heightEstimated":true,"highway":"service"},"geometry":{"type":"LineString","coordinates":[[-1.0611123,46.9411299],[-1.0610501,46.9411887],[-1.0609894,46.941246],[-1.0612215,46.9413693],[-1.0612863,46.9413171],[-1.0613522,46.941264],[-1.0613853,46.9412373]]}},{"type":"Feature","id":1018788992,"properties":{"osmId":1018788992,"name":"","kind":"building","height":3,"heightEstimated":false,"highway":""},"geometry":{"type":"Polygon","coordinates":[[[-1.0622418,46.9421795],[-1.0619625,46.9420857],[-1.0621059,46.9418951],[-1.0622717,46.9417275],[-1.0623759,46.9417799],[-1.0624085,46.9417946],[-1.0622501,46.9419583],[-1.0623688,46.9420054],[-1.0622418,46.9421795]]]}},{"type":"Feature","id":1018788994,"properties":{"osmId":1018788994,"name":"","kind":"road","height":6,"heightEstimated":true,"highway":"footway"},"geometry":{"type":"LineString","coordinates":[[-1.0623369,46.9416119],[-1.0621934,46.9417725],[-1.0621321,46.9418341],[-1.0620635,46.9419068],[-1.0618831,46.9421729],[-1.0616052,46.9423515],[-1.0616398,46.9424041]]}},{"type":"Feature","id":1018788995,"properties":{"osmId":1018788995,"name":"","kind":"parking","height":6,"heightEstimated":true,"highway":""},"geometry":{"type":"Polygon","coordinates":[[[-1.0621825,46.9416023],[-1.0620498,46.9414839],[-1.0619937,46.9415065],[-1.0618342,46.9414499],[-1.061787,46.9414769],[-1.0620281,46.941686],[-1.0621825,46.9416023]]]}},{"type":"Feature","id":1125202549,"properties":{"osmId":1125202549,"name":"","kind":"road","height":6,"heightEstimated":true,"highway":"service"},"geometry":{"type":"LineString","coordinates":[[-1.0594719,46.9422674],[-1.0594372,46.9422502],[-1.0594062,46.9422405],[-1.059275,46.9422203],[-1.058827,46.9419611]]}},{"type":"Feature","id":1125202550,"properties":{"osmId":1125202550,"name":"","kind":"parking","height":6,"heightEstimated":true,"highway":""},"geometry":{"type":"Polygon","coordinates":[[[-1.0591841,46.9422538],[-1.0593036,46.9421489],[-1.059085,46.9420067],[-1.0590467,46.941999],[-1.0590062,46.9420337],[-1.0588241,46.9419939],[-1.0587844,46.942023],[-1.0591841,46.9422538]]]}},{"type":"Feature","id":1138941013,"properties":{"osmId":1138941013,"name":"","kind":"road","height":6,"heightEstimated":true,"highway":"track"},"geometry":{"type":"LineString","coordinates":[[-1.0586457,46.941342],[-1.0587484,46.9413064],[-1.0588216,46.9412752],[-1.0588991,46.9412261],[-1.0590512,46.9411108],[-1.059197,46.9409984],[-1.0593965,46.9408528],[-1.0594422,46.9408147],[-1.0595016,46.9407725],[-1.059563,46.94074],[-1.0596192,46.9407155]]}},{"type":"Feature","id":1165353686,"properties":{"osmId":1165353686,"name":"","kind":"building","height":6,"heightEstimated":true,"highway":""},"geometry":{"type":"Polygon","coordinates":[[[-1.0591992,46.9424464],[-1.0590993,46.9426395],[-1.058745,46.9425471],[-1.0587534,46.9424464],[-1.0590029,46.9425116],[-1.0590432,46.942442],[-1.0588437,46.942329],[-1.0589042,46.9422819],[-1.0591992,46.9424464]]]}},{"type":"Feature","id":1209383705,"properties":{"osmId":1209383705,"name":"","kind":"building","height":6,"heightEstimated":true,"highway":""},"geometry":{"type":"Polygon","coordinates":[[[-1.060586,46.9403817],[-1.0605218,46.9403889],[-1.0605008,46.9403024],[-1.0605671,46.9402949],[-1.0605973,46.9402723],[-1.0605595,46.9402487],[-1.0606077,46.9402127],[-1.0606486,46.9402382],[-1.0606362,46.9402475],[-1.0606749,46.9402716],[-1.0607073,46.9402474],[-1.0607373,46.9402661],[-1.0606395,46.9403392],[-1.0606025,46.9403161],[-1.0605751,46.9403366],[-1.060586,46.9403817]]]}},{"type":"Feature","id":1209383706,"properties":{"osmId":1209383706,"name":"","kind":"building","height":6,"heightEstimated":true,"highway":""},"geometry":{"type":"Polygon","coordinates":[[[-1.0606369,46.9401256],[-1.0605313,46.9401754],[-1.0604505,46.9400955],[-1.0604562,46.9400943],[-1.0605532,46.9400454],[-1.0606369,46.9401256]]]}},{"type":"Feature","id":1209383707,"properties":{"osmId":1209383707,"name":"","kind":"building","height":6,"heightEstimated":true,"highway":""},"geometry":{"type":"Polygon","coordinates":[[[-1.0605532,46.9400454],[-1.060468,46.9399666],[-1.0603753,46.9400133],[-1.0604035,46.9400394],[-1.0604114,46.9400354],[-1.0604417,46.9400633],[-1.0604295,46.9400695],[-1.0604562,46.9400943],[-1.0605532,46.9400454]]]}},{"type":"Feature","id":1209383709,"properties":{"osmId":1209383709,"name":"","kind":"building","height":6,"heightEstimated":true,"highway":""},"geometry":{"type":"Polygon","coordinates":[[[-1.0602453,46.9403563],[-1.0600634,46.9403803],[-1.0600412,46.9403018],[-1.0602231,46.9402778],[-1.0602453,46.9403563]]]}},{"type":"Feature","id":1209383710,"properties":{"osmId":1209383710,"name":"","kind":"building","height":6,"heightEstimated":true,"highway":""},"geometry":{"type":"Polygon","coordinates":[[[-1.0599744,46.9404246],[-1.0598194,46.9404443],[-1.0597964,46.9403601],[-1.059838,46.9403548],[-1.0598449,46.9403637],[-1.0599006,46.9403567],[-1.0598954,46.9403377],[-1.0599489,46.9403309],[-1.0599744,46.9404246]]]}},{"type":"Feature","id":1209383711,"properties":{"osmId":1209383711,"name":"","kind":"building","height":6,"heightEstimated":true,"highway":""},"geometry":{"type":"Polygon","coordinates":[[[-1.05949,46.9404499],[-1.0593542,46.9405028],[-1.0592957,46.9404328],[-1.0594316,46.94038],[-1.05949,46.9404499]]]}},{"type":"Feature","id":1209383712,"properties":{"osmId":1209383712,"name":"","kind":"building","height":6,"heightEstimated":true,"highway":""},"geometry":{"type":"Polygon","coordinates":[[[-1.0598613,46.9402066],[-1.0597984,46.9402556],[-1.0597064,46.9402006],[-1.0598323,46.9401032],[-1.0598415,46.940108],[-1.0599249,46.9401567],[-1.0598822,46.9401925],[-1.0598736,46.9401874],[-1.0598544,46.9402024],[-1.0598613,46.9402066]]]}},{"type":"Feature","id":1209383713,"properties":{"osmId":1209383713,"name":"","kind":"building","height":6,"heightEstimated":true,"highway":""},"geometry":{"type":"Polygon","coordinates":[[[-1.0599249,46.9401567],[-1.060053,46.9400544],[-1.0599696,46.9400057],[-1.0598415,46.940108],[-1.0599249,46.9401567]]]}},{"type":"Feature","id":1209383714,"properties":{"osmId":1209383714,"name":"","kind":"building","height":6,"heightEstimated":true,"highway":""},"geometry":{"type":"Polygon","coordinates":[[[-1.0597827,46.9404412],[-1.0596227,46.9404653],[-1.0595957,46.9403818],[-1.0596443,46.9403745],[-1.0596459,46.9403793],[-1.0597572,46.9403625],[-1.0597827,46.9404412]]]}},{"type":"Feature","id":1370861403,"properties":{"osmId":1370861403,"name":"","kind":"road","height":6,"heightEstimated":true,"highway":"footway"},"geometry":{"type":"LineString","coordinates":[[-1.0622583,46.9415896],[-1.0623369,46.9416119],[-1.062457,46.941646],[-1.062507,46.941604]]}},{"type":"Feature","id":1370861404,"properties":{"osmId":1370861404,"name":"","kind":"road","height":6,"heightEstimated":true,"highway":"footway"},"geometry":{"type":"LineString","coordinates":[[-1.061803,46.9415513],[-1.06169,46.9415516],[-1.0612863,46.9413171],[-1.0610826,46.9411988],[-1.0610501,46.9411887],[-1.0609345,46.9411526],[-1.060886,46.9411182]]}},{"type":"Feature","id":1370861405,"properties":{"osmId":1370861405,"name":"","kind":"road","height":6,"heightEstimated":true,"highway":"service"},"geometry":{"type":"LineString","coordinates":[[-1.0603008,46.9417524],[-1.0600746,46.9419249],[-1.0599963,46.9418831],[-1.0599475,46.9418571]]}},{"type":"Feature","id":1370861406,"properties":{"osmId":1370861406,"name":"","kind":"road","height":6,"heightEstimated":true,"highway":"footway"},"geometry":{"type":"LineString","coordinates":[[-1.0600116,46.9418102],[-1.059814,46.9416784]]}},{"type":"Feature","id":1370861407,"properties":{"osmId":1370861407,"name":"","kind":"parking","height":6,"heightEstimated":true,"highway":""},"geometry":{"type":"Polygon","coordinates":[[[-1.0611378,46.9408854],[-1.0603784,46.9414795],[-1.0603138,46.941441],[-1.0610734,46.9408469],[-1.0611378,46.9408854]]]}},{"type":"Feature","id":1370861408,"properties":{"osmId":1370861408,"name":"","kind":"parking","height":6,"heightEstimated":true,"highway":""},"geometry":{"type":"Polygon","coordinates":[[[-1.0612988,46.9412359],[-1.0612771,46.9412897],[-1.0612036,46.9413373],[-1.0611587,46.9414252],[-1.0609926,46.9413295],[-1.0610353,46.9412442],[-1.0611335,46.9412172],[-1.0611343,46.9411756],[-1.0612988,46.9412359]]]}},{"type":"Feature","id":1370861409,"properties":{"osmId":1370861409,"name":"","kind":"road","height":6,"heightEstimated":true,"highway":"service"},"geometry":{"type":"LineString","coordinates":[[-1.058974,46.9431624],[-1.0588104,46.9431248],[-1.0588985,46.9429276]]}},{"type":"Feature","id":1370861410,"properties":{"osmId":1370861410,"name":"","kind":"building","height":6,"heightEstimated":true,"highway":""},"geometry":{"type":"Polygon","coordinates":[[[-1.0593335,46.9423292],[-1.0593282,46.9423125],[-1.05928,46.9423209],[-1.0592862,46.9423375],[-1.0593335,46.9423292]]]}},{"type":"Feature","id":1370861411,"properties":{"osmId":1370861411,"name":"","kind":"hedge","height":6,"heightEstimated":true,"highway":""},"geometry":{"type":"LineString","coordinates":[[-1.0598674,46.9417604],[-1.0594194,46.9420974]]}},{"type":"Feature","id":1370861412,"properties":{"osmId":1370861412,"name":"","kind":"hedge","height":6,"heightEstimated":true,"highway":""},"geometry":{"type":"LineString","coordinates":[[-1.0602295,46.9415004],[-1.0607122,46.9411216]]}},{"type":"Feature","id":1370861413,"properties":{"osmId":1370861413,"name":"","kind":"hedge","height":6,"heightEstimated":true,"highway":""},"geometry":{"type":"LineString","coordinates":[[-1.0608582,46.9410066],[-1.0610573,46.9408481]]}},{"type":"Feature","id":1370861414,"properties":{"osmId":1370861414,"name":"","kind":"road","height":6,"heightEstimated":true,"highway":"service"},"geometry":{"type":"LineString","coordinates":[[-1.060669,46.9410499],[-1.0608364,46.9411541]]}},{"type":"Feature","id":1370903845,"properties":{"osmId":1370903845,"name":"","kind":"road","height":6,"heightEstimated":true,"highway":"service"},"geometry":{"type":"LineString","coordinates":[[-1.0621253,46.9393563],[-1.0620715,46.9393787],[-1.0616002,46.9400634],[-1.0614952,46.9400966]]}},{"type":"Feature","id":1394907404,"properties":{"osmId":1394907404,"name":"","kind":"road","height":6,"heightEstimated":true,"highway":"service"},"geometry":{"type":"LineString","coordinates":[[-1.0624833,46.9408912],[-1.0622848,46.9411099]]}},{"type":"Feature","id":1396150801,"properties":{"osmId":1396150801,"name":"","kind":"road","height":6,"heightEstimated":true,"highway":"service"},"geometry":{"type":"LineString","coordinates":[[-1.0617161,46.9436172],[-1.061662,46.9435548],[-1.0615917,46.9435036],[-1.0615108,46.9434732],[-1.06124,46.9434548]]}},{"type":"Feature","id":1492377170,"properties":{"osmId":1492377170,"name":"","kind":"building","height":6,"heightEstimated":true,"highway":""},"geometry":{"type":"Polygon","coordinates":[[[-1.058169,46.9401814],[-1.0582515,46.9400669],[-1.0583804,46.9401102],[-1.0583381,46.940169],[-1.0582992,46.940156],[-1.0582591,46.9402117],[-1.058169,46.9401814]]]}},{"type":"Feature","id":1492377171,"properties":{"osmId":1492377171,"name":"","kind":"building","height":6,"heightEstimated":true,"highway":""},"geometry":{"type":"Polygon","coordinates":[[[-1.0587826,46.9404556],[-1.0586981,46.9403787],[-1.0587882,46.9403326],[-1.0588482,46.9403872],[-1.0588585,46.9403819],[-1.058883,46.9404042],[-1.0587826,46.9404556]]]}},{"type":"Feature","id":1492377172,"properties":{"osmId":1492377172,"name":"","kind":"building","height":6,"heightEstimated":true,"highway":""},"geometry":{"type":"Polygon","coordinates":[[[-1.0593542,46.9405028],[-1.05916,46.9405784],[-1.0590984,46.9405046],[-1.0592925,46.940429],[-1.0592957,46.9404328],[-1.0593542,46.9405028]]]}},{"type":"Feature","id":1533437206,"properties":{"osmId":1533437206,"name":"","kind":"road","height":6,"heightEstimated":true,"highway":"service"},"geometry":{"type":"LineString","coordinates":[[-1.0609092,46.9411011],[-1.0606923,46.9409769],[-1.06053,46.9408839],[-1.0607469,46.9407108]]}},{"type":"Feature","id":1533437207,"properties":{"osmId":1533437207,"name":"","kind":"road","height":6,"heightEstimated":true,"highway":"service"},"geometry":{"type":"LineString","coordinates":[[-1.0606923,46.9409769],[-1.0609135,46.9407959]]}}]}